[
  {
    "id": 1,
    "name": "Afghanistan",
    "nativeName": "Ø§ÙØºØ§Ù†Ø³ØªØ§Ù†",
    "code": "AF",
    "dialCode": "+93",
    "allDialCodes": [
      "+93"
    ],
    "emoji": "ğŸ‡¦ğŸ‡«",
    "unicode": "U+1F1E6 U+1F1EB",
    "flag": "https://cdn.jsdelivr.net/npm/country-flag-emoji-json@2.0.0/dist/images/AF.svg"
  },
  {
    "id": 2,
    "name": "Ã…land Islands",
    "nativeName": "Ã…land",
    "code": "AX",
    "dialCode": "+35818",
    "allDialCodes": [
      "+35818"
    ],
    "emoji": "ğŸ‡¦ğŸ‡½",
    "unicode": "U+1F1E6 U+1F1FD",
    "flag": "https://cdn.jsdelivr.net/npm/country-flag-emoji-json@2.0.0/dist/images/AX.svg"
  },
  {
    "id": 3,
    "name": "Albania",
    "nativeName": "ShqipÃ«ri",
    "code": "AL",
    "dialCode": "+355",
    "allDialCodes": [
      "+355"
    ],
    "emoji": "ğŸ‡¦ğŸ‡±",
    "unicode": "U+1F1E6 U+1F1F1",
    "flag": "https://cdn.jsdelivr.net/npm/country-flag-emoji-json@2.0.0/dist/images/AL.svg"
  },
  {
    "id": 4,
    "name": "Algeria",
    "nativeName": "Ø§Ù„Ø¬Ø²Ø§Ø¦Ø±",
    "code": "DZ",
    "dialCode": "+213",
    "allDialCodes": [
      "+213"
    ],
    "emoji": "ğŸ‡©ğŸ‡¿",
    "unicode": "U+1F1E9 U+1F1FF",
    "flag": "https://cdn.jsdelivr.net/npm/country-flag-emoji-json@2.0.0/dist/images/DZ.svg"
  },
  {
    "id": 5,
    "name": "American Samoa",
    "nativeName": "Amerika SÄmoa",
    "code": "AS",
    "dialCode": "+1684",
    "allDialCodes": [
      "+1684"
    ],
    "emoji": "ğŸ‡¦ğŸ‡¸",
    "unicode": "U+1F1E6 U+1F1F8",
    "flag": "https://cdn.jsdelivr.net/npm/country-flag-emoji-json@2.0.0/dist/images/AS.svg"
  },
  {
    "id": 6,
    "name": "Andorra",
    "nativeName": "Principat d'Andorra",
    "code": "AD",
    "dialCode": "+376",
    "allDialCodes": [
      "+376"
    ],
    "emoji": "ğŸ‡¦ğŸ‡©",
    "unicode": "U+1F1E6 U+1F1E9",
    "flag": "https://cdn.jsdelivr.net/npm/country-flag-emoji-json@2.0.0/dist/images/AD.svg"
  },
  {
    "id": 7,
    "name": "Angola",
    "nativeName": "RepÃºblica de Angola",
    "code": "AO",
    "dialCode": "+244",
    "allDialCodes": [
      "+244"
    ],
    "emoji": "ğŸ‡¦ğŸ‡´",
    "unicode": "U+1F1E6 U+1F1F4",
    "flag": "https://cdn.jsdelivr.net/npm/country-flag-emoji-json@2.0.0/dist/images/AO.svg"
  },
  {
    "id": 8,
    "name": "Anguilla",
    "nativeName": "Anguilla",
    "code": "AI",
    "dialCode": "+1264",
    "allDialCodes": [
      "+1264"
    ],
    "emoji": "ğŸ‡¦ğŸ‡®",
    "unicode": "U+1F1E6 U+1F1EE",
    "flag": "https://cdn.jsdelivr.net/npm/country-flag-emoji-json@2.0.0/dist/images/AI.svg"
  },
  {
    "id": 9,
    "name": "Antarctica",
    "nativeName": "Antarctica",
    "code": "AQ",
    "dialCode": "+672",
    "allDialCodes": [
      "+672"
    ],
    "emoji": "ğŸ‡¦ğŸ‡¶",
    "unicode": "U+1F1E6 U+1F1F6",
    "flag": "https://cdn.jsdelivr.net/npm/country-flag-emoji-json@2.0.0/dist/images/AQ.svg"
  },
  {
    "id": 10,
    "name": "Antigua and Barbuda",
    "nativeName": "Antigua and Barbuda",
    "code": "AG",
    "dialCode": "+1268",
    "allDialCodes": [
      "+1268"
    ],
    "emoji": "ğŸ‡¦ğŸ‡¬",
    "unicode": "U+1F1E6 U+1F1EC",
    "flag": "https://cdn.jsdelivr.net/npm/country-flag-emoji-json@2.0.0/dist/images/AG.svg"
  },
  {
    "id": 11,
    "name": "Argentina",
    "nativeName": "RepÃºblica Argentina",
    "code": "AR",
    "dialCode": "+54",
    "allDialCodes": [
      "+54"
    ],
    "emoji": "ğŸ‡¦ğŸ‡·",
    "unicode": "U+1F1E6 U+1F1F7",
    "flag": "https://cdn.jsdelivr.net/npm/country-flag-emoji-json@2.0.0/dist/images/AR.svg"
  },
  {
    "id": 12,
    "name": "Armenia",
    "nativeName": "Õ€Õ¡ÕµÕ¡Õ½Õ¿Õ¡Õ¶",
    "code": "AM",
    "dialCode": "+374",
    "allDialCodes": [
      "+374"
    ],
    "emoji": "ğŸ‡¦ğŸ‡²",
    "unicode": "U+1F1E6 U+1F1F2",
    "flag": "https://cdn.jsdelivr.net/npm/country-flag-emoji-json@2.0.0/dist/images/AM.svg"
  },
  {
    "id": 13,
    "name": "Aruba",
    "nativeName": "Aruba",
    "code": "AW",
    "dialCode": "+297",
    "allDialCodes": [
      "+297"
    ],
    "emoji": "ğŸ‡¦ğŸ‡¼",
    "unicode": "U+1F1E6 U+1F1FC",
    "flag": "https://cdn.jsdelivr.net/npm/country-flag-emoji-json@2.0.0/dist/images/AW.svg"
  },
  {
    "id": 14,
    "name": "Ascension Island",
    "nativeName": "Ascension Island",
    "code": "AC",
    "dialCode": "+247",
    "allDialCodes": [
      "+247"
    ],
    "emoji": "ğŸ‡¦ğŸ‡¨",
    "unicode": "U+1F1E6 U+1F1E8",
    "flag": "https://cdn.jsdelivr.net/npm/country-flag-emoji-json@2.0.0/dist/images/AC.svg"
  },
  {
    "id": 15,
    "name": "Australia",
    "nativeName": "Australia",
    "code": "AU",
    "dialCode": "+61",
    "allDialCodes": [
      "+61"
    ],
    "emoji": "ğŸ‡¦ğŸ‡º",
    "unicode": "U+1F1E6 U+1F1FA",
    "flag": "https://cdn.jsdelivr.net/npm/country-flag-emoji-json@2.0.0/dist/images/AU.svg"
  },
  {
    "id": 16,
    "name": "Austria",
    "nativeName": "Ã–sterreich",
    "code": "AT",
    "dialCode": "+43",
    "allDialCodes": [
      "+43"
    ],
    "emoji": "ğŸ‡¦ğŸ‡¹",
    "unicode": "U+1F1E6 U+1F1F9",
    "flag": "https://cdn.jsdelivr.net/npm/country-flag-emoji-json@2.0.0/dist/images/AT.svg"
  },
  {
    "id": 17,
    "name": "Azerbaijan",
    "nativeName": "AzÉ™rbaycan",
    "code": "AZ",
    "dialCode": "+994",
    "allDialCodes": [
      "+994"
    ],
    "emoji": "ğŸ‡¦ğŸ‡¿",
    "unicode": "U+1F1E6 U+1F1FF",
    "flag": "https://cdn.jsdelivr.net/npm/country-flag-emoji-json@2.0.0/dist/images/AZ.svg"
  },
  {
    "id": 18,
    "name": "Bahamas",
    "nativeName": "The Bahamas",
    "code": "BS",
    "dialCode": "+1242",
    "allDialCodes": [
      "+1242"
    ],
    "emoji": "ğŸ‡§ğŸ‡¸",
    "unicode": "U+1F1E7 U+1F1F8",
    "flag": "https://cdn.jsdelivr.net/npm/country-flag-emoji-json@2.0.0/dist/images/BS.svg"
  },
  {
    "id": 19,
    "name": "Bahrain",
    "nativeName": "Ø§Ù„Ø¨Ø­Ø±ÙŠÙ†",
    "code": "BH",
    "dialCode": "+973",
    "allDialCodes": [
      "+973"
    ],
    "emoji": "ğŸ‡§ğŸ‡­",
    "unicode": "U+1F1E7 U+1F1ED",
    "flag": "https://cdn.jsdelivr.net/npm/country-flag-emoji-json@2.0.0/dist/images/BH.svg"
  },
  {
    "id": 20,
    "name": "Bangladesh",
    "nativeName": "à¦¬à¦¾à¦‚à¦²à¦¾à¦¦à§‡à¦¶",
    "code": "BD",
    "dialCode": "+880",
    "allDialCodes": [
      "+880"
    ],
    "emoji": "ğŸ‡§ğŸ‡©",
    "unicode": "U+1F1E7 U+1F1E9",
    "flag": "https://cdn.jsdelivr.net/npm/country-flag-emoji-json@2.0.0/dist/images/BD.svg"
  },
  {
    "id": 21,
    "name": "Barbados",
    "nativeName": "Barbados",
    "code": "BB",
    "dialCode": "+1246",
    "allDialCodes": [
      "+1246"
    ],
    "emoji": "ğŸ‡§ğŸ‡§",
    "unicode": "U+1F1E7 U+1F1E7",
    "flag": "https://cdn.jsdelivr.net/npm/country-flag-emoji-json@2.0.0/dist/images/BB.svg"
  },
  {
    "id": 22,
    "name": "Belarus",
    "nativeName": "Ğ‘ĞµĞ»Ğ°Ñ€ÑƒÑÑŒ",
    "code": "BY",
    "dialCode": "+375",
    "allDialCodes": [
      "+375"
    ],
    "emoji": "ğŸ‡§ğŸ‡¾",
    "unicode": "U+1F1E7 U+1F1FE",
    "flag": "https://cdn.jsdelivr.net/npm/country-flag-emoji-json@2.0.0/dist/images/BY.svg"
  },
  {
    "id": 23,
    "name": "Belgium",
    "nativeName": "BelgiÃ«",
    "code": "BE",
    "dialCode": "+32",
    "allDialCodes": [
      "+32"
    ],
    "emoji": "ğŸ‡§ğŸ‡ª",
    "unicode": "U+1F1E7 U+1F1EA",
    "flag": "https://cdn.jsdelivr.net/npm/country-flag-emoji-json@2.0.0/dist/images/BE.svg"
  },
  {
    "id": 24,
    "name": "Belize",
    "nativeName": "Bileez",
    "code": "BZ",
    "dialCode": "+501",
    "allDialCodes": [
      "+501"
    ],
    "emoji": "ğŸ‡§ğŸ‡¿",
    "unicode": "U+1F1E7 U+1F1FF",
    "flag": "https://cdn.jsdelivr.net/npm/country-flag-emoji-json@2.0.0/dist/images/BZ.svg"
  },
  {
    "id": 25,
    "name": "Benin",
    "nativeName": "BÃ©nin",
    "code": "BJ",
    "dialCode": "+229",
    "allDialCodes": [
      "+229"
    ],
    "emoji": "ğŸ‡§ğŸ‡¯",
    "unicode": "U+1F1E7 U+1F1EF",
    "flag": "https://cdn.jsdelivr.net/npm/country-flag-emoji-json@2.0.0/dist/images/BJ.svg"
  },
  {
    "id": 26,
    "name": "Bermuda",
    "nativeName": "Bermuda",
    "code": "BM",
    "dialCode": "+1441",
    "allDialCodes": [
      "+1441"
    ],
    "emoji": "ğŸ‡§ğŸ‡²",
    "unicode": "U+1F1E7 U+1F1F2",
    "flag": "https://cdn.jsdelivr.net/npm/country-flag-emoji-json@2.0.0/dist/images/BM.svg"
  },
  {
    "id": 27,
    "name": "Bhutan",
    "nativeName": "à½ à½–à¾²à½´à½‚",
    "code": "BT",
    "dialCode": "+975",
    "allDialCodes": [
      "+975"
    ],
    "emoji": "ğŸ‡§ğŸ‡¹",
    "unicode": "U+1F1E7 U+1F1F9",
    "flag": "https://cdn.jsdelivr.net/npm/country-flag-emoji-json@2.0.0/dist/images/BT.svg"
  },
  {
    "id": 28,
    "name": "Bolivia",
    "nativeName": "Estado Plurinacional de Bolivia",
    "code": "BO",
    "dialCode": "+591",
    "allDialCodes": [
      "+591"
    ],
    "emoji": "ğŸ‡§ğŸ‡´",
    "unicode": "U+1F1E7 U+1F1F4",
    "flag": "https://cdn.jsdelivr.net/npm/country-flag-emoji-json@2.0.0/dist/images/BO.svg"
  },
  {
    "id": 29,
    "name": "Bonaire, Sint Eustatius and Saba (Caribbean Netherlands)",
    "nativeName": "Caribisch Nederland",
    "code": "BQ",
    "dialCode": "+599",
    "allDialCodes": [
      "+599"
    ],
    "emoji": "ğŸ‡§ğŸ‡¶",
    "unicode": "U+1F1E7 U+1F1F6",
    "flag": "https://cdn.jsdelivr.net/npm/country-flag-emoji-json@2.0.0/dist/images/BQ.svg"
  },
  {
    "id": 30,
    "name": "Bosnia and Herzegovina",
    "nativeName": "Ğ‘Ğ¾ÑĞ½Ğ° Ğ¸ Ğ¥ĞµÑ€Ñ†ĞµĞ³Ğ¾Ğ²Ğ¸Ğ½Ğ°",
    "code": "BA",
    "dialCode": "+387",
    "allDialCodes": [
      "+387"
    ],
    "emoji": "ğŸ‡§ğŸ‡¦",
    "unicode": "U+1F1E7 U+1F1E6",
    "flag": "https://cdn.jsdelivr.net/npm/country-flag-emoji-json@2.0.0/dist/images/BA.svg"
  },
  {
    "id": 31,
    "name": "Botswana",
    "nativeName": "Lefatshe la Botswana",
    "code": "BW",
    "dialCode": "+267",
    "allDialCodes": [
      "+267"
    ],
    "emoji": "ğŸ‡§ğŸ‡¼",
    "unicode": "U+1F1E7 U+1F1FC",
    "flag": "https://cdn.jsdelivr.net/npm/country-flag-emoji-json@2.0.0/dist/images/BW.svg"
  },
  {
    "id": 32,
    "name": "Bouvet Island",
    "nativeName": "BouvetÃ¸ya",
    "code": "BV",
    "dialCode": "+47",
    "allDialCodes": [
      "+47"
    ],
    "emoji": "ğŸ‡§ğŸ‡»",
    "unicode": "U+1F1E7 U+1F1FB",
    "flag": "https://cdn.jsdelivr.net/npm/country-flag-emoji-json@2.0.0/dist/images/BV.svg"
  },
  {
    "id": 33,
    "name": "Brazil",
    "nativeName": "Brasil",
    "code": "BR",
    "dialCode": "+55",
    "allDialCodes": [
      "+55"
    ],
    "emoji": "ğŸ‡§ğŸ‡·",
    "unicode": "U+1F1E7 U+1F1F7",
    "flag": "https://cdn.jsdelivr.net/npm/country-flag-emoji-json@2.0.0/dist/images/BR.svg"
  },
  {
    "id": 34,
    "name": "British Indian Ocean Territory",
    "nativeName": "British Indian Ocean Territory",
    "code": "IO",
    "dialCode": "+246",
    "allDialCodes": [
      "+246"
    ],
    "emoji": "ğŸ‡®ğŸ‡´",
    "unicode": "U+1F1EE U+1F1F4",
    "flag": "https://cdn.jsdelivr.net/npm/country-flag-emoji-json@2.0.0/dist/images/IO.svg"
  },
  {
    "id": 35,
    "name": "British Virgin Islands",
    "nativeName": "British Virgin Islands",
    "code": "VG",
    "dialCode": "+1284",
    "allDialCodes": [
      "+1284"
    ],
    "emoji": "ğŸ‡»ğŸ‡¬",
    "unicode": "U+1F1FB U+1F1EC",
    "flag": "https://cdn.jsdelivr.net/npm/country-flag-emoji-json@2.0.0/dist/images/VG.svg"
  },
  {
    "id": 36,
    "name": "Brunei",
    "nativeName": "Negara Brunei",
    "code": "BN",
    "dialCode": "+673",
    "allDialCodes": [
      "+673"
    ],
    "emoji": "ğŸ‡§ğŸ‡³",
    "unicode": "U+1F1E7 U+1F1F3",
    "flag": "https://cdn.jsdelivr.net/npm/country-flag-emoji-json@2.0.0/dist/images/BN.svg"
  },
  {
    "id": 37,
    "name": "Bulgaria",
    "nativeName": "Ğ‘ÑŠĞ»Ğ³Ğ°Ñ€Ğ¸Ñ",
    "code": "BG",
    "dialCode": "+359",
    "allDialCodes": [
      "+359"
    ],
    "emoji": "ğŸ‡§ğŸ‡¬",
    "unicode": "U+1F1E7 U+1F1EC",
    "flag": "https://cdn.jsdelivr.net/npm/country-flag-emoji-json@2.0.0/dist/images/BG.svg"
  },
  {
    "id": 38,
    "name": "Burkina Faso",
    "nativeName": "BurkÄ©na Faso",
    "code": "BF",
    "dialCode": "+226",
    "allDialCodes": [
      "+226"
    ],
    "emoji": "ğŸ‡§ğŸ‡«",
    "unicode": "U+1F1E7 U+1F1EB",
    "flag": "https://cdn.jsdelivr.net/npm/country-flag-emoji-json@2.0.0/dist/images/BF.svg"
  },
  {
    "id": 39,
    "name": "Burundi",
    "nativeName": "Uburundi",
    "code": "BI",
    "dialCode": "+257",
    "allDialCodes": [
      "+257"
    ],
    "emoji": "ğŸ‡§ğŸ‡®",
    "unicode": "U+1F1E7 U+1F1EE",
    "flag": "https://cdn.jsdelivr.net/npm/country-flag-emoji-json@2.0.0/dist/images/BI.svg"
  },
  {
    "id": 40,
    "name": "Cabo Verde",
    "nativeName": "RepÃºblica de Cabo Verde",
    "code": "CV",
    "dialCode": "+238",
    "allDialCodes": [
      "+238"
    ],
    "emoji": "ğŸ‡¨ğŸ‡»",
    "unicode": "U+1F1E8 U+1F1FB",
    "flag": "https://cdn.jsdelivr.net/npm/country-flag-emoji-json@2.0.0/dist/images/CV.svg"
  },
  {
    "id": 41,
    "name": "Cambodia",
    "nativeName": "á€á˜áŸ’á–á»á‡á¶",
    "code": "KH",
    "dialCode": "+855",
    "allDialCodes": [
      "+855"
    ],
    "emoji": "ğŸ‡°ğŸ‡­",
    "unicode": "U+1F1F0 U+1F1ED",
    "flag": "https://cdn.jsdelivr.net/npm/country-flag-emoji-json@2.0.0/dist/images/KH.svg"
  },
  {
    "id": 42,
    "name": "Cameroon",
    "nativeName": "Cameroun",
    "code": "CM",
    "dialCode": "+237",
    "allDialCodes": [
      "+237"
    ],
    "emoji": "ğŸ‡¨ğŸ‡²",
    "unicode": "U+1F1E8 U+1F1F2",
    "flag": "https://cdn.jsdelivr.net/npm/country-flag-emoji-json@2.0.0/dist/images/CM.svg"
  },
  {
    "id": 43,
    "name": "Canada",
    "nativeName": "Canada",
    "code": "CA",
    "dialCode": "+1",
    "allDialCodes": [
      "+1"
    ],
    "emoji": "ğŸ‡¨ğŸ‡¦",
    "unicode": "U+1F1E8 U+1F1E6",
    "flag": "https://cdn.jsdelivr.net/npm/country-flag-emoji-json@2.0.0/dist/images/CA.svg"
  },
  {
    "id": 44,
    "name": "Cape Verde",
    "nativeName": "Kabu Verdi",
    "code": "CV",
    "dialCode": "+238",
    "allDialCodes": [
      "+238"
    ],
    "emoji": "ğŸ‡¨ğŸ‡»",
    "unicode": "U+1F1E8 U+1F1FB",
    "flag": "https://cdn.jsdelivr.net/npm/country-flag-emoji-json@2.0.0/dist/images/CV.svg"
  },
  {
    "id": 45,
    "name": "Cayman Islands",
    "nativeName": "Cayman Islands",
    "code": "KY",
    "dialCode": "+1345",
    "allDialCodes": [
      "+1345"
    ],
    "emoji": "ğŸ‡°ğŸ‡¾",
    "unicode": "U+1F1F0 U+1F1FE",
    "flag": "https://cdn.jsdelivr.net/npm/country-flag-emoji-json@2.0.0/dist/images/KY.svg"
  },
  {
    "id": 46,
    "name": "Central African Republic",
    "nativeName": "RÃ©publique centrafricaine",
    "code": "CF",
    "dialCode": "+236",
    "allDialCodes": [
      "+236"
    ],
    "emoji": "ğŸ‡¨ğŸ‡«",
    "unicode": "U+1F1E8 U+1F1EB",
    "flag": "https://cdn.jsdelivr.net/npm/country-flag-emoji-json@2.0.0/dist/images/CF.svg"
  },
  {
    "id": 47,
    "name": "Chad",
    "nativeName": "Tchad",
    "code": "TD",
    "dialCode": "+235",
    "allDialCodes": [
      "+235"
    ],
    "emoji": "ğŸ‡¹ğŸ‡©",
    "unicode": "U+1F1F9 U+1F1E9",
    "flag": "https://cdn.jsdelivr.net/npm/country-flag-emoji-json@2.0.0/dist/images/TD.svg"
  },
  {
    "id": 48,
    "name": "Chile",
    "nativeName": "RepÃºblica de Chile",
    "code": "CL",
    "dialCode": "+56",
    "allDialCodes": [
      "+56"
    ],
    "emoji": "ğŸ‡¨ğŸ‡±",
    "unicode": "U+1F1E8 U+1F1F1",
    "flag": "https://cdn.jsdelivr.net/npm/country-flag-emoji-json@2.0.0/dist/images/CL.svg"
  },
  {
    "id": 49,
    "name": "China",
    "nativeName": "ä¸­å›½",
    "code": "CN",
    "dialCode": "+86",
    "allDialCodes": [
      "+86"
    ],
    "emoji": "ğŸ‡¨ğŸ‡³",
    "unicode": "U+1F1E8 U+1F1F3",
    "flag": "https://cdn.jsdelivr.net/npm/country-flag-emoji-json@2.0.0/dist/images/CN.svg"
  },
  {
    "id": 50,
    "name": "Christmas Island",
    "nativeName": "åœ£è¯å²›é¢†åœ°",
    "code": "CX",
    "dialCode": "+61",
    "allDialCodes": [
      "+61"
    ],
    "emoji": "ğŸ‡¨ğŸ‡½",
    "unicode": "U+1F1E8 U+1F1FD",
    "flag": "https://cdn.jsdelivr.net/npm/country-flag-emoji-json@2.0.0/dist/images/CX.svg"
  },
  {
    "id": 51,
    "name": "Cocos (Keeling) Islands",
    "nativeName": "Pulu Kokos (Keeling)",
    "code": "CC",
    "dialCode": "+61",
    "allDialCodes": [
      "+61"
    ],
    "emoji": "ğŸ‡¨ğŸ‡¨",
    "unicode": "U+1F1E8 U+1F1E8",
    "flag": "https://cdn.jsdelivr.net/npm/country-flag-emoji-json@2.0.0/dist/images/CC.svg"
  },
  {
    "id": 52,
    "name": "Colombia",
    "nativeName": "RepÃºblica de Colombia",
    "code": "CO",
    "dialCode": "+57",
    "allDialCodes": [
      "+57"
    ],
    "emoji": "ğŸ‡¨ğŸ‡´",
    "unicode": "U+1F1E8 U+1F1F4",
    "flag": "https://cdn.jsdelivr.net/npm/country-flag-emoji-json@2.0.0/dist/images/CO.svg"
  },
  {
    "id": 53,
    "name": "Comoros",
    "nativeName": "Ø¬Ø²Ø± Ø§Ù„Ù‚Ù…Ø±",
    "code": "KM",
    "dialCode": "+269",
    "allDialCodes": [
      "+269"
    ],
    "emoji": "ğŸ‡°ğŸ‡²",
    "unicode": "U+1F1F0 U+1F1F2",
    "flag": "https://cdn.jsdelivr.net/npm/country-flag-emoji-json@2.0.0/dist/images/KM.svg"
  },
  {
    "id": 54,
    "name": "Congo - Brazzaville (Republic)",
    "nativeName": "Congo-Brazzaville",
    "code": "CG",
    "dialCode": "+242",
    "allDialCodes": [
      "+242"
    ],
    "emoji": "ğŸ‡¨ğŸ‡¬",
    "unicode": "U+1F1E8 U+1F1EC",
    "flag": "https://cdn.jsdelivr.net/npm/country-flag-emoji-json@2.0.0/dist/images/CG.svg"
  },
  {
    "id": 55,
    "name": "Congo - Kinshasa (DRC)",
    "nativeName": "Jamhuri ya Kidemokrasia ya Kongo",
    "code": "CD",
    "dialCode": "+243",
    "allDialCodes": [
      "+243"
    ],
    "emoji": "ğŸ‡¨ğŸ‡©",
    "unicode": "U+1F1E8 U+1F1E9",
    "flag": "https://cdn.jsdelivr.net/npm/country-flag-emoji-json@2.0.0/dist/images/CD.svg"
  },
  {
    "id": 56,
    "name": "Cook Islands",
    "nativeName": "KÅ«ki â€˜Airani",
    "code": "CK",
    "dialCode": "+682",
    "allDialCodes": [
      "+682"
    ],
    "emoji": "ğŸ‡¨ğŸ‡°",
    "unicode": "U+1F1E8 U+1F1F0",
    "flag": "https://cdn.jsdelivr.net/npm/country-flag-emoji-json@2.0.0/dist/images/CK.svg"
  },
  {
    "id": 57,
    "name": "Costa Rica",
    "nativeName": "RepÃºblica de Costa Rica",
    "code": "CR",
    "dialCode": "+506",
    "allDialCodes": [
      "+506"
    ],
    "emoji": "ğŸ‡¨ğŸ‡·",
    "unicode": "U+1F1E8 U+1F1F7",
    "flag": "https://cdn.jsdelivr.net/npm/country-flag-emoji-json@2.0.0/dist/images/CR.svg"
  },
  {
    "id": 58,
    "name": "CÃ´te d'Ivoire",
    "nativeName": "RÃ©publique de CÃ´te d'Ivoire",
    "code": "CI",
    "dialCode": "+225",
    "allDialCodes": [
      "+225"
    ],
    "emoji": "ğŸ‡¨ğŸ‡®",
    "unicode": "U+1F1E8 U+1F1EE",
    "flag": "https://cdn.jsdelivr.net/npm/country-flag-emoji-json@2.0.0/dist/images/CI.svg"
  },
  {
    "id": 59,
    "name": "Croatia",
    "nativeName": "Hrvatska",
    "code": "HR",
    "dialCode": "+385",
    "allDialCodes": [
      "+385"
    ],
    "emoji": "ğŸ‡­ğŸ‡·",
    "unicode": "U+1F1ED U+1F1F7",
    "flag": "https://cdn.jsdelivr.net/npm/country-flag-emoji-json@2.0.0/dist/images/HR.svg"
  },
  {
    "id": 60,
    "name": "Cuba",
    "nativeName": "RepÃºblica de Cuba",
    "code": "CU",
    "dialCode": "+53",
    "allDialCodes": [
      "+53"
    ],
    "emoji": "ğŸ‡¨ğŸ‡º",
    "unicode": "U+1F1E8 U+1F1FA",
    "flag": "https://cdn.jsdelivr.net/npm/country-flag-emoji-json@2.0.0/dist/images/CU.svg"
  },
  {
    "id": 61,
    "name": "CuraÃ§ao",
    "nativeName": "KÃ²rsou",
    "code": "CW",
    "dialCode": "+599",
    "allDialCodes": [
      "+599"
    ],
    "emoji": "ğŸ‡¨ğŸ‡¼",
    "unicode": "U+1F1E8 U+1F1FC",
    "flag": "https://cdn.jsdelivr.net/npm/country-flag-emoji-json@2.0.0/dist/images/CW.svg"
  },
  {
    "id": 62,
    "name": "Cyprus",
    "nativeName": "ÎšÏÏ€ÏÎ¿Ï‚",
    "code": "CY",
    "dialCode": "+357",
    "allDialCodes": [
      "+357"
    ],
    "emoji": "ğŸ‡¨ğŸ‡¾",
    "unicode": "U+1F1E8 U+1F1FE",
    "flag": "https://cdn.jsdelivr.net/npm/country-flag-emoji-json@2.0.0/dist/images/CY.svg"
  },
  {
    "id": 63,
    "name": "Czechia (Czech Republic)",
    "nativeName": "ÄŒeskÃ¡ republika",
    "code": "CZ",
    "dialCode": "+420",
    "allDialCodes": [
      "+420"
    ],
    "emoji": "ğŸ‡¨ğŸ‡¿",
    "unicode": "U+1F1E8 U+1F1FF",
    "flag": "https://cdn.jsdelivr.net/npm/country-flag-emoji-json@2.0.0/dist/images/CZ.svg"
  },
  {
    "id": 64,
    "name": "Denmark",
    "nativeName": "Danmark",
    "code": "DK",
    "dialCode": "+45",
    "allDialCodes": [
      "+45"
    ],
    "emoji": "ğŸ‡©ğŸ‡°",
    "unicode": "U+1F1E9 U+1F1F0",
    "flag": "https://cdn.jsdelivr.net/npm/country-flag-emoji-json@2.0.0/dist/images/DK.svg"
  },
  {
    "id": 65,
    "name": "Djibouti",
    "nativeName": "Ø¬Ù…Ù‡ÙˆØ±ÙŠØ© Ø¬ÙŠØ¨ÙˆØªÙŠ",
    "code": "DJ",
    "dialCode": "+253",
    "allDialCodes": [
      "+253"
    ],
    "emoji": "ğŸ‡©ğŸ‡¯",
    "unicode": "U+1F1E9 U+1F1EF",
    "flag": "https://cdn.jsdelivr.net/npm/country-flag-emoji-json@2.0.0/dist/images/DJ.svg"
  },
  {
    "id": 66,
    "name": "Dominica",
    "nativeName": "Dominik",
    "code": "DM",
    "dialCode": "+1767",
    "allDialCodes": [
      "+1767"
    ],
    "emoji": "ğŸ‡©ğŸ‡²",
    "unicode": "U+1F1E9 U+1F1F2",
    "flag": "https://cdn.jsdelivr.net/npm/country-flag-emoji-json@2.0.0/dist/images/DM.svg"
  },
  {
    "id": 67,
    "name": "Dominican Republic",
    "nativeName": "RepÃºblica Dominicana",
    "code": "DO",
    "dialCode": "+1809",
    "allDialCodes": [
      "+1809",
      "+1829",
      "+1849"
    ],
    "emoji": "ğŸ‡©ğŸ‡´",
    "unicode": "U+1F1E9 U+1F1F4",
    "flag": "https://cdn.jsdelivr.net/npm/country-flag-emoji-json@2.0.0/dist/images/DO.svg"
  },
  {
    "id": 68,
    "name": "Ecuador",
    "nativeName": "RepÃºblica del Ecuador",
    "code": "EC",
    "dialCode": "+593",
    "allDialCodes": [
      "+593"
    ],
    "emoji": "ğŸ‡ªğŸ‡¨",
    "unicode": "U+1F1EA U+1F1E8",
    "flag": "https://cdn.jsdelivr.net/npm/country-flag-emoji-json@2.0.0/dist/images/EC.svg"
  },
  {
    "id": 69,
    "name": "Egypt",
    "nativeName": "Ù…ØµØ±",
    "code": "EG",
    "dialCode": "+20",
    "allDialCodes": [
      "+20"
    ],
    "emoji": "ğŸ‡ªğŸ‡¬",
    "unicode": "U+1F1EA U+1F1EC",
    "flag": "https://cdn.jsdelivr.net/npm/country-flag-emoji-json@2.0.0/dist/images/EG.svg"
  },
  {
    "id": 70,
    "name": "El Salvador",
    "nativeName": "RepÃºblica de El Salvador",
    "code": "SV",
    "dialCode": "+503",
    "allDialCodes": [
      "+503"
    ],
    "emoji": "ğŸ‡¸ğŸ‡»",
    "unicode": "U+1F1F8 U+1F1FB",
    "flag": "https://cdn.jsdelivr.net/npm/country-flag-emoji-json@2.0.0/dist/images/SV.svg"
  },
  {
    "id": 71,
    "name": "Equatorial Guinea",
    "nativeName": "Guinea Ecuatorial",
    "code": "GQ",
    "dialCode": "+240",
    "allDialCodes": [
      "+240"
    ],
    "emoji": "ğŸ‡¬ğŸ‡¶",
    "unicode": "U+1F1EC U+1F1F6",
    "flag": "https://cdn.jsdelivr.net/npm/country-flag-emoji-json@2.0.0/dist/images/GQ.svg"
  },
  {
    "id": 72,
    "name": "Eritrea",
    "nativeName": "áˆƒáŒˆáˆ¨ áŠ¤áˆ­á‰µáˆ«",
    "code": "ER",
    "dialCode": "+291",
    "allDialCodes": [
      "+291"
    ],
    "emoji": "ğŸ‡ªğŸ‡·",
    "unicode": "U+1F1EA U+1F1F7",
    "flag": "https://cdn.jsdelivr.net/npm/country-flag-emoji-json@2.0.0/dist/images/ER.svg"
  },
  {
    "id": 73,
    "name": "Estonia",
    "nativeName": "Eesti",
    "code": "EE",
    "dialCode": "+372",
    "allDialCodes": [
      "+372"
    ],
    "emoji": "ğŸ‡ªğŸ‡ª",
    "unicode": "U+1F1EA U+1F1EA",
    "flag": "https://cdn.jsdelivr.net/npm/country-flag-emoji-json@2.0.0/dist/images/EE.svg"
  },
  {
    "id": 74,
    "name": "Eswatini",
    "nativeName": "Umbuso weSwatini",
    "code": "SZ",
    "dialCode": "+268",
    "allDialCodes": [
      "+268"
    ],
    "emoji": "ğŸ‡¸ğŸ‡¿",
    "unicode": "U+1F1F8 U+1F1FF",
    "flag": "https://cdn.jsdelivr.net/npm/country-flag-emoji-json@2.0.0/dist/images/SZ.svg"
  },
  {
    "id": 75,
    "name": "Ethiopia",
    "nativeName": "Itoophiyaa",
    "code": "ET",
    "dialCode": "+251",
    "allDialCodes": [
      "+251"
    ],
    "emoji": "ğŸ‡ªğŸ‡¹",
    "unicode": "U+1F1EA U+1F1F9",
    "flag": "https://cdn.jsdelivr.net/npm/country-flag-emoji-json@2.0.0/dist/images/ET.svg"
  },
  {
    "id": 76,
    "name": "Falkland Islands (Malvinas)",
    "nativeName": "Islas Malvinas",
    "code": "FK",
    "dialCode": "+500",
    "allDialCodes": [
      "+500"
    ],
    "emoji": "ğŸ‡«ğŸ‡°",
    "unicode": "U+1F1EB U+1F1F0",
    "flag": "https://cdn.jsdelivr.net/npm/country-flag-emoji-json@2.0.0/dist/images/FK.svg"
  },
  {
    "id": 77,
    "name": "Faroe Islands",
    "nativeName": "FÃ¸royar",
    "code": "FO",
    "dialCode": "+298",
    "allDialCodes": [
      "+298"
    ],
    "emoji": "ğŸ‡«ğŸ‡´",
    "unicode": "U+1F1EB U+1F1F4",
    "flag": "https://cdn.jsdelivr.net/npm/country-flag-emoji-json@2.0.0/dist/images/FO.svg"
  },
  {
    "id": 78,
    "name": "Fiji",
    "nativeName": "à¤«à¤¼à¤¿à¤œà¥€ à¤—à¤£à¤°à¤¾à¤œà¥à¤¯ FijÄ« Gaá¹‡arÄjya",
    "code": "FJ",
    "dialCode": "+679",
    "allDialCodes": [
      "+679"
    ],
    "emoji": "ğŸ‡«ğŸ‡¯",
    "unicode": "U+1F1EB U+1F1EF",
    "flag": "https://cdn.jsdelivr.net/npm/country-flag-emoji-json@2.0.0/dist/images/FJ.svg"
  },
  {
    "id": 79,
    "name": "Finland",
    "nativeName": "Suomi",
    "code": "FI",
    "dialCode": "+358",
    "allDialCodes": [
      "+358"
    ],
    "emoji": "ğŸ‡«ğŸ‡®",
    "unicode": "U+1F1EB U+1F1EE",
    "flag": "https://cdn.jsdelivr.net/npm/country-flag-emoji-json@2.0.0/dist/images/FI.svg"
  },
  {
    "id": 80,
    "name": "France",
    "nativeName": "RÃ©publique franÃ§aise",
    "code": "FR",
    "dialCode": "+33",
    "allDialCodes": [
      "+33"
    ],
    "emoji": "ğŸ‡«ğŸ‡·",
    "unicode": "U+1F1EB U+1F1F7",
    "flag": "https://cdn.jsdelivr.net/npm/country-flag-emoji-json@2.0.0/dist/images/FR.svg"
  },
  {
    "id": 81,
    "name": "French Guiana",
    "nativeName": "Guyane franÃ§aise",
    "code": "GF",
    "dialCode": "+594",
    "allDialCodes": [
      "+594"
    ],
    "emoji": "ğŸ‡¬ğŸ‡«",
    "unicode": "U+1F1EC U+1F1EB",
    "flag": "https://cdn.jsdelivr.net/npm/country-flag-emoji-json@2.0.0/dist/images/GF.svg"
  },
  {
    "id": 82,
    "name": "French Polynesia",
    "nativeName": "PolynÃ©sie franÃ§aise",
    "code": "PF",
    "dialCode": "+689",
    "allDialCodes": [
      "+689"
    ],
    "emoji": "ğŸ‡µğŸ‡«",
    "unicode": "U+1F1F5 U+1F1EB",
    "flag": "https://cdn.jsdelivr.net/npm/country-flag-emoji-json@2.0.0/dist/images/PF.svg"
  },
  {
    "id": 83,
    "name": "French Southern Territories (French Southern and Antarctic Lands)",
    "nativeName": "Terres australes et antarctiques franÃ§aises",
    "code": "TF",
    "dialCode": "+262",
    "allDialCodes": [
      "+262"
    ],
    "emoji": "ğŸ‡¹ğŸ‡«",
    "unicode": "U+1F1F9 U+1F1EB",
    "flag": "https://cdn.jsdelivr.net/npm/country-flag-emoji-json@2.0.0/dist/images/TF.svg"
  },
  {
    "id": 84,
    "name": "Gabon",
    "nativeName": "RÃ©publique Gabonaise",
    "code": "GA",
    "dialCode": "+241",
    "allDialCodes": [
      "+241"
    ],
    "emoji": "ğŸ‡¬ğŸ‡¦",
    "unicode": "U+1F1EC U+1F1E6",
    "flag": "https://cdn.jsdelivr.net/npm/country-flag-emoji-json@2.0.0/dist/images/GA.svg"
  },
  {
    "id": 85,
    "name": "Gambia",
    "nativeName": "Gambia",
    "code": "GM",
    "dialCode": "+220",
    "allDialCodes": [
      "+220"
    ],
    "emoji": "ğŸ‡¬ğŸ‡²",
    "unicode": "U+1F1EC U+1F1F2",
    "flag": "https://cdn.jsdelivr.net/npm/country-flag-emoji-json@2.0.0/dist/images/GM.svg"
  },
  {
    "id": 86,
    "name": "Georgia",
    "nativeName": "áƒ¡áƒáƒ¥áƒáƒ áƒ—áƒ•áƒ”áƒšáƒ",
    "code": "GE",
    "dialCode": "+995",
    "allDialCodes": [
      "+995"
    ],
    "emoji": "ğŸ‡¬ğŸ‡ª",
    "unicode": "U+1F1EC U+1F1EA",
    "flag": "https://cdn.jsdelivr.net/npm/country-flag-emoji-json@2.0.0/dist/images/GE.svg"
  },
  {
    "id": 87,
    "name": "Germany",
    "nativeName": "Deutschland",
    "code": "DE",
    "dialCode": "+49",
    "allDialCodes": [
      "+49"
    ],
    "emoji": "ğŸ‡©ğŸ‡ª",
    "unicode": "U+1F1E9 U+1F1EA",
    "flag": "https://cdn.jsdelivr.net/npm/country-flag-emoji-json@2.0.0/dist/images/DE.svg"
  },
  {
    "id": 88,
    "name": "Ghana",
    "nativeName": "Gaana",
    "code": "GH",
    "dialCode": "+233",
    "allDialCodes": [
      "+233"
    ],
    "emoji": "ğŸ‡¬ğŸ‡­",
    "unicode": "U+1F1EC U+1F1ED",
    "flag": "https://cdn.jsdelivr.net/npm/country-flag-emoji-json@2.0.0/dist/images/GH.svg"
  },
  {
    "id": 89,
    "name": "Gibraltar",
    "nativeName": "Gibraltar",
    "code": "GI",
    "dialCode": "+350",
    "allDialCodes": [
      "+350"
    ],
    "emoji": "ğŸ‡¬ğŸ‡®",
    "unicode": "U+1F1EC U+1F1EE",
    "flag": "https://cdn.jsdelivr.net/npm/country-flag-emoji-json@2.0.0/dist/images/GI.svg"
  },
  {
    "id": 90,
    "name": "Greece",
    "nativeName": "Î•Î»Î»Î¬Î´Î±",
    "code": "GR",
    "dialCode": "+30",
    "allDialCodes": [
      "+30"
    ],
    "emoji": "ğŸ‡¬ğŸ‡·",
    "unicode": "U+1F1EC U+1F1F7",
    "flag": "https://cdn.jsdelivr.net/npm/country-flag-emoji-json@2.0.0/dist/images/GR.svg"
  },
  {
    "id": 91,
    "name": "Greenland",
    "nativeName": "Kalaallit Nunaat",
    "code": "GL",
    "dialCode": "+299",
    "allDialCodes": [
      "+299"
    ],
    "emoji": "ğŸ‡¬ğŸ‡±",
    "unicode": "U+1F1EC U+1F1F1",
    "flag": "https://cdn.jsdelivr.net/npm/country-flag-emoji-json@2.0.0/dist/images/GL.svg"
  },
  {
    "id": 92,
    "name": "Grenada",
    "nativeName": "Gwenad",
    "code": "GD",
    "dialCode": "+1473",
    "allDialCodes": [
      "+1473"
    ],
    "emoji": "ğŸ‡¬ğŸ‡©",
    "unicode": "U+1F1EC U+1F1E9",
    "flag": "https://cdn.jsdelivr.net/npm/country-flag-emoji-json@2.0.0/dist/images/GD.svg"
  },
  {
    "id": 93,
    "name": "Guadeloupe",
    "nativeName": "Gwadloup",
    "code": "GP",
    "dialCode": "+590",
    "allDialCodes": [
      "+590"
    ],
    "emoji": "ğŸ‡¬ğŸ‡µ",
    "unicode": "U+1F1EC U+1F1F5",
    "flag": "https://cdn.jsdelivr.net/npm/country-flag-emoji-json@2.0.0/dist/images/GP.svg"
  },
  {
    "id": 94,
    "name": "Guam",
    "nativeName": "GuÃ¥han",
    "code": "GU",
    "dialCode": "+1671",
    "allDialCodes": [
      "+1671"
    ],
    "emoji": "ğŸ‡¬ğŸ‡º",
    "unicode": "U+1F1EC U+1F1FA",
    "flag": "https://cdn.jsdelivr.net/npm/country-flag-emoji-json@2.0.0/dist/images/GU.svg"
  },
  {
    "id": 95,
    "name": "Guatemala",
    "nativeName": "RepÃºblica de Guatemala",
    "code": "GT",
    "dialCode": "+502",
    "allDialCodes": [
      "+502"
    ],
    "emoji": "ğŸ‡¬ğŸ‡¹",
    "unicode": "U+1F1EC U+1F1F9",
    "flag": "https://cdn.jsdelivr.net/npm/country-flag-emoji-json@2.0.0/dist/images/GT.svg"
  },
  {
    "id": 96,
    "name": "Guernsey",
    "nativeName": "GuernÃ©si",
    "code": "GG",
    "dialCode": "+44",
    "allDialCodes": [
      "+44"
    ],
    "emoji": "ğŸ‡¬ğŸ‡¬",
    "unicode": "U+1F1EC U+1F1EC",
    "flag": "https://cdn.jsdelivr.net/npm/country-flag-emoji-json@2.0.0/dist/images/GG.svg"
  },
  {
    "id": 97,
    "name": "Guinea",
    "nativeName": "GuinÃ©e",
    "code": "GN",
    "dialCode": "+224",
    "allDialCodes": [
      "+224"
    ],
    "emoji": "ğŸ‡¬ğŸ‡³",
    "unicode": "U+1F1EC U+1F1F3",
    "flag": "https://cdn.jsdelivr.net/npm/country-flag-emoji-json@2.0.0/dist/images/GN.svg"
  },
  {
    "id": 98,
    "name": "Guinea-Bissau",
    "nativeName": "GuinÃ© Bissau",
    "code": "GW",
    "dialCode": "+245",
    "allDialCodes": [
      "+245"
    ],
    "emoji": "ğŸ‡¬ğŸ‡¼",
    "unicode": "U+1F1EC U+1F1FC",
    "flag": "https://cdn.jsdelivr.net/npm/country-flag-emoji-json@2.0.0/dist/images/GW.svg"
  },
  {
    "id": 99,
    "name": "Guyana",
    "nativeName": "Guyana",
    "code": "GY",
    "dialCode": "+592",
    "allDialCodes": [
      "+592"
    ],
    "emoji": "ğŸ‡¬ğŸ‡¾",
    "unicode": "U+1F1EC U+1F1FE",
    "flag": "https://cdn.jsdelivr.net/npm/country-flag-emoji-json@2.0.0/dist/images/GY.svg"
  },
  {
    "id": 100,
    "name": "Haiti",
    "nativeName": "RÃ©publique d'HaÃ¯ti",
    "code": "HT",
    "dialCode": "+509",
    "allDialCodes": [
      "+509"
    ],
    "emoji": "ğŸ‡­ğŸ‡¹",
    "unicode": "U+1F1ED U+1F1F9",
    "flag": "https://cdn.jsdelivr.net/npm/country-flag-emoji-json@2.0.0/dist/images/HT.svg"
  },
  {
    "id": 101,
    "name": "Heard Island and McDonald Islands",
    "nativeName": "Heard Island and McDonald Islands",
    "code": "HM",
    "dialCode": "+672",
    "allDialCodes": [
      "+672"
    ],
    "emoji": "ğŸ‡­ğŸ‡²",
    "unicode": "U+1F1ED U+1F1F2",
    "flag": "https://cdn.jsdelivr.net/npm/country-flag-emoji-json@2.0.0/dist/images/HM.svg"
  },
  {
    "id": 102,
    "name": "Honduras",
    "nativeName": "RepÃºblica de Honduras",
    "code": "HN",
    "dialCode": "+504",
    "allDialCodes": [
      "+504"
    ],
    "emoji": "ğŸ‡­ğŸ‡³",
    "unicode": "U+1F1ED U+1F1F3",
    "flag": "https://cdn.jsdelivr.net/npm/country-flag-emoji-json@2.0.0/dist/images/HN.svg"
  },
  {
    "id": 103,
    "name": "Hong Kong SAR China",
    "nativeName": "é¦™æ¸¯",
    "code": "HK",
    "dialCode": "+852",
    "allDialCodes": [
      "+852"
    ],
    "emoji": "ğŸ‡­ğŸ‡°",
    "unicode": "U+1F1ED U+1F1F0",
    "flag": "https://cdn.jsdelivr.net/npm/country-flag-emoji-json@2.0.0/dist/images/HK.svg"
  },
  {
    "id": 104,
    "name": "Hungary",
    "nativeName": "MagyarorszÃ¡g",
    "code": "HU",
    "dialCode": "+36",
    "allDialCodes": [
      "+36"
    ],
    "emoji": "ğŸ‡­ğŸ‡º",
    "unicode": "U+1F1ED U+1F1FA",
    "flag": "https://cdn.jsdelivr.net/npm/country-flag-emoji-json@2.0.0/dist/images/HU.svg"
  },
  {
    "id": 105,
    "name": "Iceland",
    "nativeName": "Ãsland",
    "code": "IS",
    "dialCode": "+354",
    "allDialCodes": [
      "+354"
    ],
    "emoji": "ğŸ‡®ğŸ‡¸",
    "unicode": "U+1F1EE U+1F1F8",
    "flag": "https://cdn.jsdelivr.net/npm/country-flag-emoji-json@2.0.0/dist/images/IS.svg"
  },
  {
    "id": 106,
    "name": "India",
    "nativeName": "à¤­à¤¾à¤°à¤¤",
    "code": "IN",
    "dialCode": "+91",
    "allDialCodes": [
      "+91"
    ],
    "emoji": "ğŸ‡®ğŸ‡³",
    "unicode": "U+1F1EE U+1F1F3",
    "flag": "https://cdn.jsdelivr.net/npm/country-flag-emoji-json@2.0.0/dist/images/IN.svg"
  },
  {
    "id": 107,
    "name": "Indonesia",
    "nativeName": "Republik Indonesia",
    "code": "ID",
    "dialCode": "+62",
    "allDialCodes": [
      "+62"
    ],
    "emoji": "ğŸ‡®ğŸ‡©",
    "unicode": "U+1F1EE U+1F1E9",
    "flag": "https://cdn.jsdelivr.net/npm/country-flag-emoji-json@2.0.0/dist/images/ID.svg"
  },
  {
    "id": 108,
    "name": "Iran",
    "nativeName": "Ø§ÛŒØ±Ø§Ù†",
    "code": "IR",
    "dialCode": "+98",
    "allDialCodes": [
      "+98"
    ],
    "emoji": "ğŸ‡®ğŸ‡·",
    "unicode": "U+1F1EE U+1F1F7",
    "flag": "https://cdn.jsdelivr.net/npm/country-flag-emoji-json@2.0.0/dist/images/IR.svg"
  },
  {
    "id": 109,
    "name": "Iraq",
    "nativeName": "Ø§Ù„Ø¹Ø±Ø§Ù‚",
    "code": "IQ",
    "dialCode": "+964",
    "allDialCodes": [
      "+964"
    ],
    "emoji": "ğŸ‡®ğŸ‡¶",
    "unicode": "U+1F1EE U+1F1F6",
    "flag": "https://cdn.jsdelivr.net/npm/country-flag-emoji-json@2.0.0/dist/images/IQ.svg"
  },
  {
    "id": 110,
    "name": "Ireland",
    "nativeName": "Ã‰ire",
    "code": "IE",
    "dialCode": "+353",
    "allDialCodes": [
      "+353"
    ],
    "emoji": "ğŸ‡®ğŸ‡ª",
    "unicode": "U+1F1EE U+1F1EA",
    "flag": "https://cdn.jsdelivr.net/npm/country-flag-emoji-json@2.0.0/dist/images/IE.svg"
  },
  {
    "id": 111,
    "name": "Isle of Man",
    "nativeName": "Isle of Man",
    "code": "IM",
    "dialCode": "+44",
    "allDialCodes": [
      "+44"
    ],
    "emoji": "ğŸ‡®ğŸ‡²",
    "unicode": "U+1F1EE U+1F1F2",
    "flag": "https://cdn.jsdelivr.net/npm/country-flag-emoji-json@2.0.0/dist/images/IM.svg"
  },
  {
    "id": 112,
    "name": "Israel",
    "nativeName": "×™×©×¨××œ",
    "code": "IL",
    "dialCode": "+972",
    "allDialCodes": [
      "+972"
    ],
    "emoji": "ğŸ‡®ğŸ‡±",
    "unicode": "U+1F1EE U+1F1F1",
    "flag": "https://cdn.jsdelivr.net/npm/country-flag-emoji-json@2.0.0/dist/images/IL.svg"
  },
  {
    "id": 113,
    "name": "Italy",
    "nativeName": "Italia",
    "code": "IT",
    "dialCode": "+39",
    "allDialCodes": [
      "+39"
    ],
    "emoji": "ğŸ‡®ğŸ‡¹",
    "unicode": "U+1F1EE U+1F1F9",
    "flag": "https://cdn.jsdelivr.net/npm/country-flag-emoji-json@2.0.0/dist/images/IT.svg"
  },
  {
    "id": 114,
    "name": "Jamaica",
    "nativeName": "Jumieka",
    "code": "JM",
    "dialCode": "+1876",
    "allDialCodes": [
      "+1876"
    ],
    "emoji": "ğŸ‡¯ğŸ‡²",
    "unicode": "U+1F1EF U+1F1F2",
    "flag": "https://cdn.jsdelivr.net/npm/country-flag-emoji-json@2.0.0/dist/images/JM.svg"
  },
  {
    "id": 115,
    "name": "Japan",
    "nativeName": "æ—¥æœ¬",
    "code": "JP",
    "dialCode": "+81",
    "allDialCodes": [
      "+81"
    ],
    "emoji": "ğŸ‡¯ğŸ‡µ",
    "unicode": "U+1F1EF U+1F1F5",
    "flag": "https://cdn.jsdelivr.net/npm/country-flag-emoji-json@2.0.0/dist/images/JP.svg"
  },
  {
    "id": 116,
    "name": "Jersey",
    "nativeName": "JÃ¨rri",
    "code": "JE",
    "dialCode": "+44",
    "allDialCodes": [
      "+44"
    ],
    "emoji": "ğŸ‡¯ğŸ‡ª",
    "unicode": "U+1F1EF U+1F1EA",
    "flag": "https://cdn.jsdelivr.net/npm/country-flag-emoji-json@2.0.0/dist/images/JE.svg"
  },
  {
    "id": 117,
    "name": "Jordan",
    "nativeName": "Ø§Ù„Ø£Ø±Ø¯Ù†",
    "code": "JO",
    "dialCode": "+962",
    "allDialCodes": [
      "+962"
    ],
    "emoji": "ğŸ‡¯ğŸ‡´",
    "unicode": "U+1F1EF U+1F1F4",
    "flag": "https://cdn.jsdelivr.net/npm/country-flag-emoji-json@2.0.0/dist/images/JO.svg"
  },
  {
    "id": 118,
    "name": "Kazakhstan",
    "nativeName": "ĞšĞ°Ğ·Ğ°Ñ…ÑÑ‚Ğ°Ğ½",
    "code": "KZ",
    "dialCode": "+7",
    "allDialCodes": [
      "+7"
    ],
    "emoji": "ğŸ‡°ğŸ‡¿",
    "unicode": "U+1F1F0 U+1F1FF",
    "flag": "https://cdn.jsdelivr.net/npm/country-flag-emoji-json@2.0.0/dist/images/KZ.svg"
  },
  {
    "id": 119,
    "name": "Kenya",
    "nativeName": "Jamhuri ya Kenya",
    "code": "KE",
    "dialCode": "+254",
    "allDialCodes": [
      "+254"
    ],
    "emoji": "ğŸ‡°ğŸ‡ª",
    "unicode": "U+1F1F0 U+1F1EA",
    "flag": "https://cdn.jsdelivr.net/npm/country-flag-emoji-json@2.0.0/dist/images/KE.svg"
  },
  {
    "id": 120,
    "name": "Kiribati",
    "nativeName": "Kiribati",
    "code": "KI",
    "dialCode": "+686",
    "allDialCodes": [
      "+686"
    ],
    "emoji": "ğŸ‡°ğŸ‡®",
    "unicode": "U+1F1F0 U+1F1EE",
    "flag": "https://cdn.jsdelivr.net/npm/country-flag-emoji-json@2.0.0/dist/images/KI.svg"
  },
  {
    "id": 121,
    "name": "Kosovo",
    "nativeName": "Republika e KosovÃ«s",
    "code": "XK",
    "dialCode": "+383",
    "allDialCodes": [
      "+383"
    ],
    "emoji": "ğŸ‡½ğŸ‡°",
    "unicode": "U+1F1FD U+1F1F0",
    "flag": "https://cdn.jsdelivr.net/npm/country-flag-emoji-json@2.0.0/dist/images/XK.svg"
  },
  {
    "id": 122,
    "name": "Kuwait",
    "nativeName": "Ø§Ù„ÙƒÙˆÙŠØª",
    "code": "KW",
    "dialCode": "+965",
    "allDialCodes": [
      "+965"
    ],
    "emoji": "ğŸ‡°ğŸ‡¼",
    "unicode": "U+1F1F0 U+1F1FC",
    "flag": "https://cdn.jsdelivr.net/npm/country-flag-emoji-json@2.0.0/dist/images/KW.svg"
  },
  {
    "id": 123,
    "name": "Kyrgyzstan",
    "nativeName": "ĞšÑ‹Ñ€Ğ³Ñ‹Ğ·ÑÑ‚Ğ°Ğ½",
    "code": "KG",
    "dialCode": "+996",
    "allDialCodes": [
      "+996"
    ],
    "emoji": "ğŸ‡°ğŸ‡¬",
    "unicode": "U+1F1F0 U+1F1EC",
    "flag": "https://cdn.jsdelivr.net/npm/country-flag-emoji-json@2.0.0/dist/images/KG.svg"
  },
  {
    "id": 124,
    "name": "Laos (Lao People's Democratic Republic)",
    "nativeName": "àº¥àº²àº§",
    "code": "LA",
    "dialCode": "+856",
    "allDialCodes": [
      "+856"
    ],
    "emoji": "ğŸ‡±ğŸ‡¦",
    "unicode": "U+1F1F1 U+1F1E6",
    "flag": "https://cdn.jsdelivr.net/npm/country-flag-emoji-json@2.0.0/dist/images/LA.svg"
  },
  {
    "id": 125,
    "name": "Latvia",
    "nativeName": "Latvija",
    "code": "LV",
    "dialCode": "+371",
    "allDialCodes": [
      "+371"
    ],
    "emoji": "ğŸ‡±ğŸ‡»",
    "unicode": "U+1F1F1 U+1F1FB",
    "flag": "https://cdn.jsdelivr.net/npm/country-flag-emoji-json@2.0.0/dist/images/LV.svg"
  },
  {
    "id": 126,
    "name": "Lebanon",
    "nativeName": "Ù„Ø¨Ù†Ø§Ù†",
    "code": "LB",
    "dialCode": "+961",
    "allDialCodes": [
      "+961"
    ],
    "emoji": "ğŸ‡±ğŸ‡§",
    "unicode": "U+1F1F1 U+1F1E7",
    "flag": "https://cdn.jsdelivr.net/npm/country-flag-emoji-json@2.0.0/dist/images/LB.svg"
  },
  {
    "id": 127,
    "name": "Lesotho",
    "nativeName": "Naha ea Lesotho",
    "code": "LS",
    "dialCode": "+266",
    "allDialCodes": [
      "+266"
    ],
    "emoji": "ğŸ‡±ğŸ‡¸",
    "unicode": "U+1F1F1 U+1F1F8",
    "flag": "https://cdn.jsdelivr.net/npm/country-flag-emoji-json@2.0.0/dist/images/LS.svg"
  },
  {
    "id": 128,
    "name": "Liberia",
    "nativeName": "Liberia",
    "code": "LR",
    "dialCode": "+231",
    "allDialCodes": [
      "+231"
    ],
    "emoji": "ğŸ‡±ğŸ‡·",
    "unicode": "U+1F1F1 U+1F1F7",
    "flag": "https://cdn.jsdelivr.net/npm/country-flag-emoji-json@2.0.0/dist/images/LR.svg"
  },
  {
    "id": 129,
    "name": "Libya",
    "nativeName": "Ù„ÙŠØ¨ÙŠØ§",
    "code": "LY",
    "dialCode": "+218",
    "allDialCodes": [
      "+218"
    ],
    "emoji": "ğŸ‡±ğŸ‡¾",
    "unicode": "U+1F1F1 U+1F1FE",
    "flag": "https://cdn.jsdelivr.net/npm/country-flag-emoji-json@2.0.0/dist/images/LY.svg"
  },
  {
    "id": 130,
    "name": "Liechtenstein",
    "nativeName": "FÃ¼rstentum Liechtenstein",
    "code": "LI",
    "dialCode": "+423",
    "allDialCodes": [
      "+423"
    ],
    "emoji": "ğŸ‡±ğŸ‡®",
    "unicode": "U+1F1F1 U+1F1EE",
    "flag": "https://cdn.jsdelivr.net/npm/country-flag-emoji-json@2.0.0/dist/images/LI.svg"
  },
  {
    "id": 131,
    "name": "Lithuania",
    "nativeName": "Lietuva",
    "code": "LT",
    "dialCode": "+370",
    "allDialCodes": [
      "+370"
    ],
    "emoji": "ğŸ‡±ğŸ‡¹",
    "unicode": "U+1F1F1 U+1F1F9",
    "flag": "https://cdn.jsdelivr.net/npm/country-flag-emoji-json@2.0.0/dist/images/LT.svg"
  },
  {
    "id": 132,
    "name": "Luxembourg",
    "nativeName": "Groussherzogtum LÃ«tzebuerg",
    "code": "LU",
    "dialCode": "+352",
    "allDialCodes": [
      "+352"
    ],
    "emoji": "ğŸ‡±ğŸ‡º",
    "unicode": "U+1F1F1 U+1F1FA",
    "flag": "https://cdn.jsdelivr.net/npm/country-flag-emoji-json@2.0.0/dist/images/LU.svg"
  },
  {
    "id": 133,
    "name": "Macao SAR China",
    "nativeName": "æ¾³é–€",
    "code": "MO",
    "dialCode": "+853",
    "allDialCodes": [
      "+853"
    ],
    "emoji": "ğŸ‡²ğŸ‡´",
    "unicode": "U+1F1F2 U+1F1F4",
    "flag": "https://cdn.jsdelivr.net/npm/country-flag-emoji-json@2.0.0/dist/images/MO.svg"
  },
  {
    "id": 134,
    "name": "Macedonia (North Macedonia)",
    "nativeName": "ĞœĞ°ĞºĞµĞ´Ğ¾Ğ½Ğ¸Ñ˜Ğ°",
    "code": "MK",
    "dialCode": "+389",
    "allDialCodes": [
      "+389"
    ],
    "emoji": "ğŸ‡²ğŸ‡°",
    "unicode": "U+1F1F2 U+1F1F0",
    "flag": "https://cdn.jsdelivr.net/npm/country-flag-emoji-json@2.0.0/dist/images/MO.svg"
  },
  {
    "id": 135,
    "name": "Madagascar",
    "nativeName": "Madagasikara",
    "code": "MG",
    "dialCode": "+261",
    "allDialCodes": [
      "+261"
    ],
    "emoji": "ğŸ‡²ğŸ‡¬",
    "unicode": "U+1F1F2 U+1F1EC",
    "flag": "https://cdn.jsdelivr.net/npm/country-flag-emoji-json@2.0.0/dist/images/MG.svg"
  },
  {
    "id": 136,
    "name": "Malawi",
    "nativeName": "Dziko la MalaÅµi",
    "code": "MW",
    "dialCode": "+265",
    "allDialCodes": [
      "+265"
    ],
    "emoji": "ğŸ‡²ğŸ‡¼",
    "unicode": "U+1F1F2 U+1F1FC",
    "flag": "https://cdn.jsdelivr.net/npm/country-flag-emoji-json@2.0.0/dist/images/MW.svg"
  },
  {
    "id": 137,
    "name": "Malaysia",
    "nativeName": "Ù…Ù„ÙŠØ³ÙŠØ§",
    "code": "MY",
    "dialCode": "+60",
    "allDialCodes": [
      "+60"
    ],
    "emoji": "ğŸ‡²ğŸ‡¾",
    "unicode": "U+1F1F2 U+1F1FE",
    "flag": "https://cdn.jsdelivr.net/npm/country-flag-emoji-json@2.0.0/dist/images/MY.svg"
  },
  {
    "id": 138,
    "name": "Maldives",
    "nativeName": "Ş‹Ş¨ŞˆŞ¬Ş€Ş¨ŞƒŞ§Ş‡Ş°Ş–Ş­ŞŞ¬ Ş–ŞªŞ‰Ş°Ş€Ş«ŞƒŞ¨Ş‡Ş°Ş”Ş§",
    "code": "MV",
    "dialCode": "+960",
    "allDialCodes": [
      "+960"
    ],
    "emoji": "ğŸ‡²ğŸ‡»",
    "unicode": "U+1F1F2 U+1F1FB",
    "flag": "https://cdn.jsdelivr.net/npm/country-flag-emoji-json@2.0.0/dist/images/MV.svg"
  },
  {
    "id": 139,
    "name": "Mali",
    "nativeName": "Mali",
    "code": "ML",
    "dialCode": "+223",
    "allDialCodes": [
      "+223"
    ],
    "emoji": "ğŸ‡²ğŸ‡±",
    "unicode": "U+1F1F2 U+1F1F1",
    "flag": "https://cdn.jsdelivr.net/npm/country-flag-emoji-json@2.0.0/dist/images/ML.svg"
  },
  {
    "id": 140,
    "name": "Malta",
    "nativeName": "Repubblika ta' Malta",
    "code": "MT",
    "dialCode": "+356",
    "allDialCodes": [
      "+356"
    ],
    "emoji": "ğŸ‡²ğŸ‡¹",
    "unicode": "U+1F1F2 U+1F1F9",
    "flag": "https://cdn.jsdelivr.net/npm/country-flag-emoji-json@2.0.0/dist/images/MT.svg"
  },
  {
    "id": 141,
    "name": "Marshall Islands",
    "nativeName": "AolepÄn AorÅkin á¹‚ajeá¸·",
    "code": "MH",
    "dialCode": "+692",
    "allDialCodes": [
      "+692"
    ],
    "emoji": "ğŸ‡²ğŸ‡­",
    "unicode": "U+1F1F2 U+1F1ED",
    "flag": "https://cdn.jsdelivr.net/npm/country-flag-emoji-json@2.0.0/dist/images/MH.svg"
  },
  {
    "id": 142,
    "name": "Martinique",
    "nativeName": "Matinik",
    "code": "MQ",
    "dialCode": "+596",
    "allDialCodes": [
      "+596"
    ],
    "emoji": "ğŸ‡²ğŸ‡¶",
    "unicode": "U+1F1F2 U+1F1F6",
    "flag": "https://cdn.jsdelivr.net/npm/country-flag-emoji-json@2.0.0/dist/images/MQ.svg"
  },
  {
    "id": 143,
    "name": "Mauritania",
    "nativeName": "Ù…ÙˆØ±ÙŠØªØ§Ù†ÙŠØ§",
    "code": "MR",
    "dialCode": "+222",
    "allDialCodes": [
      "+222"
    ],
    "emoji": "ğŸ‡²ğŸ‡·",
    "unicode": "U+1F1F2 U+1F1F7",
    "flag": "https://cdn.jsdelivr.net/npm/country-flag-emoji-json@2.0.0/dist/images/MR.svg"
  },
  {
    "id": 144,
    "name": "Mauritius",
    "nativeName": "Moris",
    "code": "MU",
    "dialCode": "+230",
    "allDialCodes": [
      "+230"
    ],
    "emoji": "ğŸ‡²ğŸ‡º",
    "unicode": "U+1F1F2 U+1F1FA",
    "flag": "https://cdn.jsdelivr.net/npm/country-flag-emoji-json@2.0.0/dist/images/MU.svg"
  },
  {
    "id": 145,
    "name": "Mayotte",
    "nativeName": "Mayotte",
    "code": "YT",
    "dialCode": "+262",
    "allDialCodes": [
      "+262"
    ],
    "emoji": "ğŸ‡¾ğŸ‡¹",
    "unicode": "U+1F1FE U+1F1F9",
    "flag": "https://cdn.jsdelivr.net/npm/country-flag-emoji-json@2.0.0/dist/images/YT.svg"
  },
  {
    "id": 146,
    "name": "Mexico",
    "nativeName": "MÃ©xico",
    "code": "MX",
    "dialCode": "+52",
    "allDialCodes": [
      "+52"
    ],
    "emoji": "ğŸ‡²ğŸ‡½",
    "unicode": "U+1F1F2 U+1F1FD",
    "flag": "https://cdn.jsdelivr.net/npm/country-flag-emoji-json@2.0.0/dist/images/MX.svg"
  },
  {
    "id": 147,
    "name": "Micronesia",
    "nativeName": "Micronesia",
    "code": "FM",
    "dialCode": "+691",
    "allDialCodes": [
      "+691"
    ],
    "emoji": "ğŸ‡«ğŸ‡²",
    "unicode": "U+1F1EB U+1F1F2",
    "flag": "https://cdn.jsdelivr.net/npm/country-flag-emoji-json@2.0.0/dist/images/FM.svg"
  },
  {
    "id": 148,
    "name": "Moldova",
    "nativeName": "Republica Moldova",
    "code": "MD",
    "dialCode": "+373",
    "allDialCodes": [
      "+373"
    ],
    "emoji": "ğŸ‡²ğŸ‡©",
    "unicode": "U+1F1F2 U+1F1E9",
    "flag": "https://cdn.jsdelivr.net/npm/country-flag-emoji-json@2.0.0/dist/images/MD.svg"
  },
  {
    "id": 149,
    "name": "Monaco",
    "nativeName": "PrincipautÃ© de Monaco",
    "code": "MC",
    "dialCode": "+377",
    "allDialCodes": [
      "+377"
    ],
    "emoji": "ğŸ‡²ğŸ‡¨",
    "unicode": "U+1F1F2 U+1F1E8",
    "flag": "https://cdn.jsdelivr.net/npm/country-flag-emoji-json@2.0.0/dist/images/MC.svg"
  },
  {
    "id": 150,
    "name": "Mongolia",
    "nativeName": "ĞœĞ¾Ğ½Ğ³Ğ¾Ğ»",
    "code": "MN",
    "dialCode": "+976",
    "allDialCodes": [
      "+976"
    ],
    "emoji": "ğŸ‡²ğŸ‡³",
    "unicode": "U+1F1F2 U+1F1F3",
    "flag": "https://cdn.jsdelivr.net/npm/country-flag-emoji-json@2.0.0/dist/images/MN.svg"
  },
  {
    "id": 151,
    "name": "Montenegro",
    "nativeName": "Crna Gora",
    "code": "ME",
    "dialCode": "+382",
    "allDialCodes": [
      "+382"
    ],
    "emoji": "ğŸ‡²ğŸ‡ª",
    "unicode": "U+1F1F2 U+1F1EA",
    "flag": "https://cdn.jsdelivr.net/npm/country-flag-emoji-json@2.0.0/dist/images/ME.svg"
  },
  {
    "id": 152,
    "name": "Montserrat",
    "nativeName": "Montserrat",
    "code": "MS",
    "dialCode": "+1664",
    "allDialCodes": [
      "+1664"
    ],
    "emoji": "ğŸ‡²ğŸ‡¸",
    "unicode": "U+1F1F2 U+1F1F8",
    "flag": "https://cdn.jsdelivr.net/npm/country-flag-emoji-json@2.0.0/dist/images/MS.svg"
  },
  {
    "id": 153,
    "name": "Morocco",
    "nativeName": "Ø§Ù„Ù…ØºØ±Ø¨",
    "code": "MA",
    "dialCode": "+212",
    "allDialCodes": [
      "+212"
    ],
    "emoji": "ğŸ‡²ğŸ‡¦",
    "unicode": "U+1F1F2 U+1F1E6",
    "flag": "https://cdn.jsdelivr.net/npm/country-flag-emoji-json@2.0.0/dist/images/MA.svg"
  },
  {
    "id": 154,
    "name": "Mozambique",
    "nativeName": "MoÃ§ambique",
    "code": "MZ",
    "dialCode": "+258",
    "allDialCodes": [
      "+258"
    ],
    "emoji": "ğŸ‡²ğŸ‡¿",
    "unicode": "U+1F1F2 U+1F1FF",
    "flag": "https://cdn.jsdelivr.net/npm/country-flag-emoji-json@2.0.0/dist/images/MZ.svg"
  },
  {
    "id": 155,
    "name": "Myanmar (Burma)",
    "nativeName": "á€™á€¼á€”á€ºá€™á€¬",
    "code": "MM",
    "dialCode": "+95",
    "allDialCodes": [
      "+95"
    ],
    "emoji": "ğŸ‡²ğŸ‡²",
    "unicode": "U+1F1F2 U+1F1F2",
    "flag": "https://cdn.jsdelivr.net/npm/country-flag-emoji-json@2.0.0/dist/images/MM.svg"
  },
  {
    "id": 156,
    "name": "Namibia",
    "nativeName": "NamibiÃ«",
    "code": "NA",
    "dialCode": "+264",
    "allDialCodes": [
      "+264"
    ],
    "emoji": "ğŸ‡³ğŸ‡¦",
    "unicode": "U+1F1F3 U+1F1E6",
    "flag": "https://cdn.jsdelivr.net/npm/country-flag-emoji-json@2.0.0/dist/images/NA.svg"
  },
  {
    "id": 157,
    "name": "Nauru",
    "nativeName": "Repubrikin Naoero",
    "code": "NR",
    "dialCode": "+674",
    "allDialCodes": [
      "+674"
    ],
    "emoji": "ğŸ‡³ğŸ‡·",
    "unicode": "U+1F1F3 U+1F1F7",
    "flag": "https://cdn.jsdelivr.net/npm/country-flag-emoji-json@2.0.0/dist/images/NR.svg"
  },
  {
    "id": 158,
    "name": "Nepal",
    "nativeName": "à¤¨à¥‡à¤ªà¤¾à¤²",
    "code": "NP",
    "dialCode": "+977",
    "allDialCodes": [
      "+977"
    ],
    "emoji": "ğŸ‡³ğŸ‡µ",
    "unicode": "U+1F1F3 U+1F1F5",
    "flag": "https://cdn.jsdelivr.net/npm/country-flag-emoji-json@2.0.0/dist/images/NP.svg"
  },
  {
    "id": 159,
    "name": "Netherlands",
    "nativeName": "Nederland",
    "code": "NL",
    "dialCode": "+31",
    "allDialCodes": [
      "+31"
    ],
    "emoji": "ğŸ‡³ğŸ‡±",
    "unicode": "U+1F1F3 U+1F1F1",
    "flag": "https://cdn.jsdelivr.net/npm/country-flag-emoji-json@2.0.0/dist/images/NL.svg"
  },
  {
    "id": 160,
    "name": "New Caledonia",
    "nativeName": "Nouvelle-CalÃ©donie",
    "code": "NC",
    "dialCode": "+687",
    "allDialCodes": [
      "+687"
    ],
    "emoji": "ğŸ‡³ğŸ‡¨",
    "unicode": "U+1F1F3 U+1F1E8",
    "flag": "https://cdn.jsdelivr.net/npm/country-flag-emoji-json@2.0.0/dist/images/NC.svg"
  },
  {
    "id": 161,
    "name": "New Zealand",
    "nativeName": "Aotearoa",
    "code": "NZ",
    "dialCode": "+64",
    "allDialCodes": [
      "+64"
    ],
    "emoji": "ğŸ‡³ğŸ‡¿",
    "unicode": "U+1F1F3 U+1F1FF",
    "flag": "https://cdn.jsdelivr.net/npm/country-flag-emoji-json@2.0.0/dist/images/NZ.svg"
  },
  {
    "id": 162,
    "name": "Nicaragua",
    "nativeName": "RepÃºblica de Nicaragua",
    "code": "NI",
    "dialCode": "+505",
    "allDialCodes": [
      "+505"
    ],
    "emoji": "ğŸ‡³ğŸ‡®",
    "unicode": "U+1F1F3 U+1F1EE",
    "flag": "https://cdn.jsdelivr.net/npm/country-flag-emoji-json@2.0.0/dist/images/NI.svg"
  },
  {
    "id": 163,
    "name": "Niger",
    "nativeName": "Nijar",
    "code": "NE",
    "dialCode": "+227",
    "allDialCodes": [
      "+227"
    ],
    "emoji": "ğŸ‡³ğŸ‡ª",
    "unicode": "U+1F1F3 U+1F1EA",
    "flag": "https://cdn.jsdelivr.net/npm/country-flag-emoji-json@2.0.0/dist/images/NE.svg"
  },
  {
    "id": 164,
    "name": "Nigeria",
    "nativeName": "Jamhuriyar Tarayyar Najeriya",
    "code": "NG",
    "dialCode": "+234",
    "allDialCodes": [
      "+234"
    ],
    "emoji": "ğŸ‡³ğŸ‡¬",
    "unicode": "U+1F1F3 U+1F1EC",
    "flag": "https://cdn.jsdelivr.net/npm/country-flag-emoji-json@2.0.0/dist/images/NG.svg"
  },
  {
    "id": 165,
    "name": "Niue",
    "nativeName": "NiuÄ“",
    "code": "NU",
    "dialCode": "+683",
    "allDialCodes": [
      "+683"
    ],
    "emoji": "ğŸ‡³ğŸ‡º",
    "unicode": "U+1F1F3 U+1F1FA",
    "flag": "https://cdn.jsdelivr.net/npm/country-flag-emoji-json@2.0.0/dist/images/NU.svg"
  },
  {
    "id": 166,
    "name": "Norfolk Island",
    "nativeName": "Teratri a' Norf'k Ailen",
    "code": "NF",
    "dialCode": "+672",
    "allDialCodes": [
      "+672"
    ],
    "emoji": "ğŸ‡³ğŸ‡«",
    "unicode": "U+1F1F3 U+1F1EB",
    "flag": "https://cdn.jsdelivr.net/npm/country-flag-emoji-json@2.0.0/dist/images/NF.svg"
  },
  {
    "id": 167,
    "name": "North Korea",
    "nativeName": "ì¡°ì„  ë¯¼ì£¼ì£¼ì˜ ì¸ë¯¼ ê³µí™”êµ­",
    "code": "KP",
    "dialCode": "+850",
    "allDialCodes": [
      "+850"
    ],
    "emoji": "ğŸ‡°ğŸ‡µ",
    "unicode": "U+1F1F0 U+1F1F5",
    "flag": "https://cdn.jsdelivr.net/npm/country-flag-emoji-json@2.0.0/dist/images/KP.svg"
  },
  {
    "id": 168,
    "name": "Northern Mariana Islands",
    "nativeName": "Sankattan Siha Na Islas MariÃ¥nas",
    "code": "MP",
    "dialCode": "+1670",
    "allDialCodes": [
      "+1670"
    ],
    "emoji": "ğŸ‡²ğŸ‡µ",
    "unicode": "U+1F1F2 U+1F1F5",
    "flag": "https://cdn.jsdelivr.net/npm/country-flag-emoji-json@2.0.0/dist/images/MP.svg"
  },
  {
    "id": 169,
    "name": "Norway",
    "nativeName": "Norge",
    "code": "NO",
    "dialCode": "+47",
    "allDialCodes": [
      "+47"
    ],
    "emoji": "ğŸ‡³ğŸ‡´",
    "unicode": "U+1F1F3 U+1F1F4",
    "flag": "https://cdn.jsdelivr.net/npm/country-flag-emoji-json@2.0.0/dist/images/NO.svg"
  },
  {
    "id": 170,
    "name": "Oman",
    "nativeName": "Ø¹ÙÙ…Ø§Ù†",
    "code": "OM",
    "dialCode": "+968",
    "allDialCodes": [
      "+968"
    ],
    "emoji": "ğŸ‡´ğŸ‡²",
    "unicode": "U+1F1F4 U+1F1F2",
    "flag": "https://cdn.jsdelivr.net/npm/country-flag-emoji-json@2.0.0/dist/images/OM.svg"
  },
  {
    "id": 171,
    "name": "Pakistan",
    "nativeName": "Ù¾Ø§Ú©Ø³ØªØ§Ù†",
    "code": "PK",
    "dialCode": "+92",
    "allDialCodes": [
      "+92"
    ],
    "emoji": "ğŸ‡µğŸ‡°",
    "unicode": "U+1F1F5 U+1F1F0",
    "flag": "https://cdn.jsdelivr.net/npm/country-flag-emoji-json@2.0.0/dist/images/PK.svg"
  },
  {
    "id": 172,
    "name": "Palau",
    "nativeName": "Beluu er a Belau",
    "code": "PW",
    "dialCode": "+680",
    "allDialCodes": [
      "+680"
    ],
    "emoji": "ğŸ‡µğŸ‡¼",
    "unicode": "U+1F1F5 U+1F1FC",
    "flag": "https://cdn.jsdelivr.net/npm/country-flag-emoji-json@2.0.0/dist/images/PW.svg"
  },
  {
    "id": 173,
    "name": "Palestinian Territories",
    "nativeName": "ÙÙ„Ø³Ø·ÙŠÙ†",
    "code": "PS",
    "dialCode": "+970",
    "allDialCodes": [
      "+970"
    ],
    "emoji": "ğŸ‡µğŸ‡¸",
    "unicode": "U+1F1F5 U+1F1F8",
    "flag": "https://cdn.jsdelivr.net/npm/country-flag-emoji-json@2.0.0/dist/images/PS.svg"
  },
  {
    "id": 174,
    "name": "Panama",
    "nativeName": "RepÃºblica de PanamÃ¡",
    "code": "PA",
    "dialCode": "+507",
    "allDialCodes": [
      "+507"
    ],
    "emoji": "ğŸ‡µğŸ‡¦",
    "unicode": "U+1F1F5 U+1F1E6",
    "flag": "https://cdn.jsdelivr.net/npm/country-flag-emoji-json@2.0.0/dist/images/PA.svg"
  },
  {
    "id": 175,
    "name": "Papua New Guinea",
    "nativeName": "Independen Stet bilong Papua Niugini",
    "code": "PG",
    "dialCode": "+675",
    "allDialCodes": [
      "+675"
    ],
    "emoji": "ğŸ‡µğŸ‡¬",
    "unicode": "U+1F1F5 U+1F1EC",
    "flag": "https://cdn.jsdelivr.net/npm/country-flag-emoji-json@2.0.0/dist/images/PG.svg"
  },
  {
    "id": 176,
    "name": "Paraguay",
    "nativeName": "RepÃºblica del Paraguay",
    "code": "PY",
    "dialCode": "+595",
    "allDialCodes": [
      "+595"
    ],
    "emoji": "ğŸ‡µğŸ‡¾",
    "unicode": "U+1F1F5 U+1F1FE",
    "flag": "https://cdn.jsdelivr.net/npm/country-flag-emoji-json@2.0.0/dist/images/PY.svg"
  },
  {
    "id": 177,
    "name": "Peru",
    "nativeName": "PerÃº",
    "code": "PE",
    "dialCode": "+51",
    "allDialCodes": [
      "+51"
    ],
    "emoji": "ğŸ‡µğŸ‡ª",
    "unicode": "U+1F1F5 U+1F1EA",
    "flag": "https://cdn.jsdelivr.net/npm/country-flag-emoji-json@2.0.0/dist/images/PE.svg"
  },
  {
    "id": 178,
    "name": "Philippines",
    "nativeName": "Republika ng Pilipinas",
    "code": "PH",
    "dialCode": "+63",
    "allDialCodes": [
      "+63"
    ],
    "emoji": "ğŸ‡µğŸ‡­",
    "unicode": "U+1F1F5 U+1F1ED",
    "flag": "https://cdn.jsdelivr.net/npm/country-flag-emoji-json@2.0.0/dist/images/PH.svg"
  },
  {
    "id": 179,
    "name": "Pitcairn Islands",
    "nativeName": "Pitkern Ailen",
    "code": "PN",
    "dialCode": "+64",
    "allDialCodes": [
      "+64"
    ],
    "emoji": "ğŸ‡µğŸ‡³",
    "unicode": "U+1F1F5 U+1F1F3",
    "flag": "https://cdn.jsdelivr.net/npm/country-flag-emoji-json@2.0.0/dist/images/PN.svg"
  },
  {
    "id": 180,
    "name": "Poland",
    "nativeName": "Polska",
    "code": "PL",
    "dialCode": "+48",
    "allDialCodes": [
      "+48"
    ],
    "emoji": "ğŸ‡µğŸ‡±",
    "unicode": "U+1F1F5 U+1F1F1",
    "flag": "https://cdn.jsdelivr.net/npm/country-flag-emoji-json@2.0.0/dist/images/PL.svg"
  },
  {
    "id": 181,
    "name": "Portugal",
    "nativeName": "RepÃºblica Portuguesa",
    "code": "PT",
    "dialCode": "+351",
    "allDialCodes": [
      "+351"
    ],
    "emoji": "ğŸ‡µğŸ‡¹",
    "unicode": "U+1F1F5 U+1F1F9",
    "flag": "https://cdn.jsdelivr.net/npm/country-flag-emoji-json@2.0.0/dist/images/PT.svg"
  },
  {
    "id": 182,
    "name": "Puerto Rico",
    "nativeName": "Estado Libre Asociado de Puerto Rico",
    "code": "PR",
    "dialCode": "+1787",
    "allDialCodes": [
      "+1787",
      "+1939"
    ],
    "emoji": "ğŸ‡µğŸ‡·",
    "unicode": "U+1F1F5 U+1F1F7",
    "flag": "https://cdn.jsdelivr.net/npm/country-flag-emoji-json@2.0.0/dist/images/PR.svg"
  },
  {
    "id": 183,
    "name": "Qatar",
    "nativeName": "Ù‚Ø·Ø±",
    "code": "QA",
    "dialCode": "+974",
    "allDialCodes": [
      "+974"
    ],
    "emoji": "ğŸ‡¶ğŸ‡¦",
    "unicode": "U+1F1F6 U+1F1E6",
    "flag": "https://cdn.jsdelivr.net/npm/country-flag-emoji-json@2.0.0/dist/images/QA.svg"
  },
  {
    "id": 184,
    "name": "RÃ©union",
    "nativeName": "La RÃ©union",
    "code": "RE",
    "dialCode": "+262",
    "allDialCodes": [
      "+262"
    ],
    "emoji": "ğŸ‡·ğŸ‡ª",
    "unicode": "U+1F1F7 U+1F1EA",
    "flag": "https://cdn.jsdelivr.net/npm/country-flag-emoji-json@2.0.0/dist/images/RE.svg"
  },
  {
    "id": 185,
    "name": "Romania",
    "nativeName": "RomÃ¢nia",
    "code": "RO",
    "dialCode": "+40",
    "allDialCodes": [
      "+40"
    ],
    "emoji": "ğŸ‡·ğŸ‡´",
    "unicode": "U+1F1F7 U+1F1F4",
    "flag": "https://cdn.jsdelivr.net/npm/country-flag-emoji-json@2.0.0/dist/images/RO.svg"
  },
  {
    "id": 186,
    "name": "Russia",
    "nativeName": "Ğ Ğ¾ÑÑĞ¸Ğ¹ÑĞºĞ°Ñ Ğ¤ĞµĞ´ĞµÑ€Ğ°Ñ†Ğ¸Ñ",
    "code": "RU",
    "dialCode": "+7",
    "allDialCodes": [
      "+7"
    ],
    "emoji": "ğŸ‡·ğŸ‡º",
    "unicode": "U+1F1F7 U+1F1FA",
    "flag": "https://cdn.jsdelivr.net/npm/country-flag-emoji-json@2.0.0/dist/images/RU.svg"
  },
  {
    "id": 187,
    "name": "Rwanda",
    "nativeName": "Repubulika y'u Rwanda",
    "code": "RW",
    "dialCode": "+250",
    "allDialCodes": [
      "+250"
    ],
    "emoji": "ğŸ‡·ğŸ‡¼",
    "unicode": "U+1F1F7 U+1F1FC",
    "flag": "https://cdn.jsdelivr.net/npm/country-flag-emoji-json@2.0.0/dist/images/RW.svg"
  },
  {
    "id": 188,
    "name": "Saint BarthÃ©lemy",
    "nativeName": "Saint-BarthÃ©lemy",
    "code": "BL",
    "dialCode": "+590",
    "allDialCodes": [
      "+590"
    ],
    "emoji": "ğŸ‡§ğŸ‡±",
    "unicode": "U+1F1E7 U+1F1F1",
    "flag": "https://cdn.jsdelivr.net/npm/country-flag-emoji-json@2.0.0/dist/images/BL.svg"
  },
  {
    "id": 189,
    "name": "Saint Helena",
    "nativeName": "Saint Helena",
    "code": "SH",
    "dialCode": "+290",
    "allDialCodes": [
      "+290"
    ],
    "emoji": "ğŸ‡¸ğŸ‡­",
    "unicode": "U+1F1F8 U+1F1ED",
    "flag": "https://cdn.jsdelivr.net/npm/country-flag-emoji-json@2.0.0/dist/images/SH.svg"
  },
  {
    "id": 190,
    "name": "Saint Kitts and Nevis",
    "nativeName": "Saint Kitts and Nevis",
    "code": "KN",
    "dialCode": "+1869",
    "allDialCodes": [
      "+1869"
    ],
    "emoji": "ğŸ‡°ğŸ‡³",
    "unicode": "U+1F1F0 U+1F1F3",
    "flag": "https://cdn.jsdelivr.net/npm/country-flag-emoji-json@2.0.0/dist/images/KN.svg"
  },
  {
    "id": 191,
    "name": "Saint Lucia",
    "nativeName": "Sent Lisi",
    "code": "LC",
    "dialCode": "+1758",
    "allDialCodes": [
      "+1758"
    ],
    "emoji": "ğŸ‡±ğŸ‡¨",
    "unicode": "U+1F1F1 U+1F1E8",
    "flag": "https://cdn.jsdelivr.net/npm/country-flag-emoji-json@2.0.0/dist/images/LC.svg"
  },
  {
    "id": 192,
    "name": "Saint Martin",
    "nativeName": "Saint-Martin",
    "code": "MF",
    "dialCode": "+590",
    "allDialCodes": [
      "+590"
    ],
    "emoji": "ğŸ‡²ğŸ‡«",
    "unicode": "U+1F1F2 U+1F1EB",
    "flag": "https://cdn.jsdelivr.net/npm/country-flag-emoji-json@2.0.0/dist/images/MF.svg"
  },
  {
    "id": 193,
    "name": "Saint Pierre and Miquelon",
    "nativeName": "Saint-Pierre-et-Miquelon",
    "code": "PM",
    "dialCode": "+508",
    "allDialCodes": [
      "+508"
    ],
    "emoji": "ğŸ‡µğŸ‡²",
    "unicode": "U+1F1F5 U+1F1F2",
    "flag": "https://cdn.jsdelivr.net/npm/country-flag-emoji-json@2.0.0/dist/images/PM.svg"
  },
  {
    "id": 194,
    "name": "Saint Vincent and the Grenadines",
    "nativeName": "Saint Vincent and the Grenadines",
    "code": "VC",
    "dialCode": "+1784",
    "allDialCodes": [
      "+1784"
    ],
    "emoji": "ğŸ‡»ğŸ‡¨",
    "unicode": "U+1F1FB U+1F1E8",
    "flag": "https://cdn.jsdelivr.net/npm/country-flag-emoji-json@2.0.0/dist/images/VC.svg"
  },
  {
    "id": 195,
    "name": "Samoa",
    "nativeName": "Malo SaÊ»oloto TutoÊ»atasi o SÄmoa",
    "code": "WS",
    "dialCode": "+685",
    "allDialCodes": [
      "+685"
    ],
    "emoji": "ğŸ‡¼ğŸ‡¸",
    "unicode": "U+1F1FC U+1F1F8",
    "flag": "https://cdn.jsdelivr.net/npm/country-flag-emoji-json@2.0.0/dist/images/WS.svg"
  },
  {
    "id": 196,
    "name": "San Marino",
    "nativeName": "Repubblica di San Marino",
    "code": "SM",
    "dialCode": "+378",
    "allDialCodes": [
      "+378"
    ],
    "emoji": "ğŸ‡¸ğŸ‡²",
    "unicode": "U+1F1F8 U+1F1F2",
    "flag": "https://cdn.jsdelivr.net/npm/country-flag-emoji-json@2.0.0/dist/images/SM.svg"
  },
  {
    "id": 197,
    "name": "Sao Tome and Principe",
    "nativeName": "SÃ£o TomÃ© e PrÃ­ncipe",
    "code": "ST",
    "dialCode": "+239",
    "allDialCodes": [
      "+239"
    ],
    "emoji": "ğŸ‡¸ğŸ‡¹",
    "unicode": "U+1F1F8 U+1F1F9",
    "flag": "https://cdn.jsdelivr.net/npm/country-flag-emoji-json@2.0.0/dist/images/ST.svg"
  },
  {
    "id": 198,
    "name": "Saudi Arabia",
    "nativeName": "Ø§Ù„Ù…Ù…Ù„ÙƒØ© Ø§Ù„Ø¹Ø±Ø¨ÙŠØ© Ø§Ù„Ø³Ø¹ÙˆØ¯ÙŠØ©",
    "code": "SA",
    "dialCode": "+966",
    "allDialCodes": [
      "+966"
    ],
    "emoji": "ğŸ‡¸ğŸ‡¦",
    "unicode": "U+1F1F8 U+1F1E6",
    "flag": "https://cdn.jsdelivr.net/npm/country-flag-emoji-json@2.0.0/dist/images/SA.svg"
  },
  {
    "id": 199,
    "name": "Senegal",
    "nativeName": "SÃ©nÃ©gal",
    "code": "SN",
    "dialCode": "+221",
    "allDialCodes": [
      "+221"
    ],
    "emoji": "ğŸ‡¸ğŸ‡³",
    "unicode": "U+1F1F8 U+1F1F3",
    "flag": "https://cdn.jsdelivr.net/npm/country-flag-emoji-json@2.0.0/dist/images/SN.svg"
  },
  {
    "id": 200,
    "name": "Serbia",
    "nativeName": "Ğ¡Ñ€Ğ±Ğ¸Ñ˜Ğ°",
    "code": "RS",
    "dialCode": "+381",
    "allDialCodes": [
      "+381"
    ],
    "emoji": "ğŸ‡·ğŸ‡¸",
    "unicode": "U+1F1F7 U+1F1F8",
    "flag": "https://cdn.jsdelivr.net/npm/country-flag-emoji-json@2.0.0/dist/images/RS.svg"
  },
  {
    "id": 201,
    "name": "Seychelles",
    "nativeName": "RÃ©publique des Seychelles",
    "code": "SC",
    "dialCode": "+248",
    "allDialCodes": [
      "+248"
    ],
    "emoji": "ğŸ‡¸ğŸ‡¨",
    "unicode": "U+1F1F8 U+1F1E8",
    "flag": "https://cdn.jsdelivr.net/npm/country-flag-emoji-json@2.0.0/dist/images/SC.svg"
  },
  {
    "id": 202,
    "name": "Sierra Leone",
    "nativeName": "Sierra Leone",
    "code": "SL",
    "dialCode": "+232",
    "allDialCodes": [
      "+232"
    ],
    "emoji": "ğŸ‡¸ğŸ‡±",
    "unicode": "U+1F1F8 U+1F1F1",
    "flag": "https://cdn.jsdelivr.net/npm/country-flag-emoji-json@2.0.0/dist/images/SL.svg"
  },
  {
    "id": 203,
    "name": "Singapore",
    "nativeName": "Republik Singapura",
    "code": "SG",
    "dialCode": "+65",
    "allDialCodes": [
      "+65"
    ],
    "emoji": "ğŸ‡¸ğŸ‡¬",
    "unicode": "U+1F1F8 U+1F1EC",
    "flag": "https://cdn.jsdelivr.net/npm/country-flag-emoji-json@2.0.0/dist/images/SG.svg"
  },
  {
    "id": 204,
    "name": "Sint Maarten",
    "nativeName": "Sint Maarten",
    "code": "SX",
    "dialCode": "+1721",
    "allDialCodes": [
      "+1721"
    ],
    "emoji": "ğŸ‡¸ğŸ‡½",
    "unicode": "U+1F1F8 U+1F1FD",
    "flag": "https://cdn.jsdelivr.net/npm/country-flag-emoji-json@2.0.0/dist/images/SX.svg"
  },
  {
    "id": 205,
    "name": "Slovakia",
    "nativeName": "Slovensko",
    "code": "SK",
    "dialCode": "+421",
    "allDialCodes": [
      "+421"
    ],
    "emoji": "ğŸ‡¸ğŸ‡°",
    "unicode": "U+1F1F8 U+1F1F0",
    "flag": "https://cdn.jsdelivr.net/npm/country-flag-emoji-json@2.0.0/dist/images/SK.svg"
  },
  {
    "id": 206,
    "name": "Slovenia",
    "nativeName": "Slovenija",
    "code": "SI",
    "dialCode": "+386",
    "allDialCodes": [
      "+386"
    ],
    "emoji": "ğŸ‡¸ğŸ‡®",
    "unicode": "U+1F1F8 U+1F1EE",
    "flag": "https://cdn.jsdelivr.net/npm/country-flag-emoji-json@2.0.0/dist/images/SI.svg"
  },
  {
    "id": 207,
    "name": "Solomon Islands",
    "nativeName": "Solomon Aelan",
    "code": "SB",
    "dialCode": "+677",
    "allDialCodes": [
      "+677"
    ],
    "emoji": "ğŸ‡¸ğŸ‡§",
    "unicode": "U+1F1F8 U+1F1E7",
    "flag": "https://cdn.jsdelivr.net/npm/country-flag-emoji-json@2.0.0/dist/images/SB.svg"
  },
  {
    "id": 208,
    "name": "Somalia",
    "nativeName": "Soomaaliya",
    "code": "SO",
    "dialCode": "+252",
    "allDialCodes": [
      "+252"
    ],
    "emoji": "ğŸ‡¸ğŸ‡´",
    "unicode": "U+1F1F8 U+1F1F4",
    "flag": "https://cdn.jsdelivr.net/npm/country-flag-emoji-json@2.0.0/dist/images/SO.svg"
  },
  {
    "id": 209,
    "name": "South Africa",
    "nativeName": "Suid-Afrika",
    "code": "ZA",
    "dialCode": "+27",
    "allDialCodes": [
      "+27"
    ],
    "emoji": "ğŸ‡¿ğŸ‡¦",
    "unicode": "U+1F1FF U+1F1E6",
    "flag": "https://cdn.jsdelivr.net/npm/country-flag-emoji-json@2.0.0/dist/images/ZA.svg"
  },
  {
    "id": 210,
    "name": "South Georgia and South Sandwich Islands (SGSSI)",
    "nativeName": "South Georgia and South Sandwich Islands (SGSSI)",
    "code": "GS",
    "dialCode": "+500",
    "allDialCodes": [
      "+500"
    ],
    "emoji": "ğŸ‡¬ğŸ‡¸",
    "unicode": "U+1F1EC U+1F1F8",
    "flag": "https://cdn.jsdelivr.net/npm/country-flag-emoji-json@2.0.0/dist/images/GS.svg"
  },
  {
    "id": 211,
    "name": "South Korea",
    "nativeName": "ëŒ€í•œë¯¼êµ­",
    "code": "KR",
    "dialCode": "+82",
    "allDialCodes": [
      "+82"
    ],
    "emoji": "ğŸ‡°ğŸ‡·",
    "unicode": "U+1F1F0 U+1F1F7",
    "flag": "https://cdn.jsdelivr.net/npm/country-flag-emoji-json@2.0.0/dist/images/KR.svg"
  },
  {
    "id": 212,
    "name": "South Sudan",
    "nativeName": "Ø¬Ù†ÙˆØ¨ Ø§Ù„Ø³ÙˆØ¯Ø§Ù†",
    "code": "SS",
    "dialCode": "+211",
    "allDialCodes": [
      "+211"
    ],
    "emoji": "ğŸ‡¸ğŸ‡¸",
    "unicode": "U+1F1F8 U+1F1F8",
    "flag": "https://cdn.jsdelivr.net/npm/country-flag-emoji-json@2.0.0/dist/images/SS.svg"
  },
  {
    "id": 213,
    "name": "Spain",
    "nativeName": "EspaÃ±a",
    "code": "ES",
    "dialCode": "+34",
    "allDialCodes": [
      "+34"
    ],
    "emoji": "ğŸ‡ªğŸ‡¸",
    "unicode": "U+1F1EA U+1F1F8",
    "flag": "https://cdn.jsdelivr.net/npm/country-flag-emoji-json@2.0.0/dist/images/ES.svg"
  },
  {
    "id": 214,
    "name": "Sri Lanka",
    "nativeName": "à·à·Šâ€à¶»à·“ à¶½à¶‚à¶šà·à·€",
    "code": "LK",
    "dialCode": "+94",
    "allDialCodes": [
      "+94"
    ],
    "emoji": "ğŸ‡±ğŸ‡°",
    "unicode": "U+1F1F1 U+1F1F0",
    "flag": "https://cdn.jsdelivr.net/npm/country-flag-emoji-json@2.0.0/dist/images/LK.svg"
  },
  {
    "id": 215,
    "name": "Sudan",
    "nativeName": "Ø§Ù„Ø³ÙˆØ¯Ø§Ù†",
    "code": "SD",
    "dialCode": "+249",
    "allDialCodes": [
      "+249"
    ],
    "emoji": "ğŸ‡¸ğŸ‡©",
    "unicode": "U+1F1F8 U+1F1E9",
    "flag": "https://cdn.jsdelivr.net/npm/country-flag-emoji-json@2.0.0/dist/images/SD.svg"
  },
  {
    "id": 216,
    "name": "Suriname",
    "nativeName": "Republiek Suriname",
    "code": "SR",
    "dialCode": "+597",
    "allDialCodes": [
      "+597"
    ],
    "emoji": "ğŸ‡¸ğŸ‡·",
    "unicode": "U+1F1F8 U+1F1F7",
    "flag": "https://cdn.jsdelivr.net/npm/country-flag-emoji-json@2.0.0/dist/images/SR.svg"
  },
  {
    "id": 217,
    "name": "Svalbard and Jan Mayen",
    "nativeName": "Svalbard and Jan Mayen",
    "code": "SJ",
    "dialCode": "+47",
    "allDialCodes": [
      "+47"
    ],
    "emoji": "ğŸ‡¸ğŸ‡¯",
    "unicode": "U+1F1F8 U+1F1EF",
    "flag": "https://cdn.jsdelivr.net/npm/country-flag-emoji-json@2.0.0/dist/images/SJ.svg"
  },
  {
    "id": 218,
    "name": "Sweden",
    "nativeName": "Sverige",
    "code": "SE",
    "dialCode": "+46",
    "allDialCodes": [
      "+46"
    ],
    "emoji": "ğŸ‡¸ğŸ‡ª",
    "unicode": "U+1F1F8 U+1F1EA",
    "flag": "https://cdn.jsdelivr.net/npm/country-flag-emoji-json@2.0.0/dist/images/SE.svg"
  },
  {
    "id": 219,
    "name": "Switzerland",
    "nativeName": "Schweiz",
    "code": "CH",
    "dialCode": "+41",
    "allDialCodes": [
      "+41"
    ],
    "emoji": "ğŸ‡¨ğŸ‡­",
    "unicode": "U+1F1E8 U+1F1ED",
    "flag": "https://cdn.jsdelivr.net/npm/country-flag-emoji-json@2.0.0/dist/images/CH.svg"
  },
  {
    "id": 220,
    "name": "Syria",
    "nativeName": "Ø³ÙˆØ±ÙŠØ§",
    "code": "SY",
    "dialCode": "+963",
    "allDialCodes": [
      "+963"
    ],
    "emoji": "ğŸ‡¸ğŸ‡¾",
    "unicode": "U+1F1F8 U+1F1FE",
    "flag": "https://cdn.jsdelivr.net/npm/country-flag-emoji-json@2.0.0/dist/images/SY.svg"
  },
  {
    "id": 221,
    "name": "Taiwan",
    "nativeName": "å°ç£",
    "code": "TW",
    "dialCode": "+886",
    "allDialCodes": [
      "+886"
    ],
    "emoji": "ğŸ‡¹ğŸ‡¼",
    "unicode": "U+1F1F9 U+1F1FC",
    "flag": "https://cdn.jsdelivr.net/npm/country-flag-emoji-json@2.0.0/dist/images/TW.svg"
  },
  {
    "id": 222,
    "name": "Tajikistan",
    "nativeName": "Ò¶ÑƒĞ¼Ò³ÑƒÑ€Ğ¸Ğ¸ Ğ¢Ğ¾Ò·Ğ¸ĞºĞ¸ÑÑ‚Ğ¾Ğ½",
    "code": "TJ",
    "dialCode": "+992",
    "allDialCodes": [
      "+992"
    ],
    "emoji": "ğŸ‡¹ğŸ‡¯",
    "unicode": "U+1F1F9 U+1F1EF",
    "flag": "https://cdn.jsdelivr.net/npm/country-flag-emoji-json@2.0.0/dist/images/TJ.svg"
  },
  {
    "id": 223,
    "name": "Tanzania",
    "nativeName": "Jamhuri ya Muungano wa Tanzania",
    "code": "TZ",
    "dialCode": "+255",
    "allDialCodes": [
      "+255"
    ],
    "emoji": "ğŸ‡¹ğŸ‡¿",
    "unicode": "U+1F1F9 U+1F1FF",
    "flag": "https://cdn.jsdelivr.net/npm/country-flag-emoji-json@2.0.0/dist/images/TZ.svg"
  },
  {
    "id": 224,
    "name": "Thailand",
    "nativeName": "à¹„à¸—à¸¢",
    "code": "TH",
    "dialCode": "+66",
    "allDialCodes": [
      "+66"
    ],
    "emoji": "ğŸ‡¹ğŸ‡­",
    "unicode": "U+1F1F9 U+1F1ED",
    "flag": "https://cdn.jsdelivr.net/npm/country-flag-emoji-json@2.0.0/dist/images/TH.svg"
  },
  {
    "id": 225,
    "name": "Timor-Leste",
    "nativeName": "RepÃºblica DemocrÃ¡tica de Timor-Leste",
    "code": "TL",
    "dialCode": "+670",
    "allDialCodes": [
      "+670"
    ],
    "emoji": "ğŸ‡¹ğŸ‡±",
    "unicode": "U+1F1F9 U+1F1F1",
    "flag": "https://cdn.jsdelivr.net/npm/country-flag-emoji-json@2.0.0/dist/images/TL.svg"
  },
  {
    "id": 226,
    "name": "Togo",
    "nativeName": "RÃ©publique togolaise",
    "code": "TG",
    "dialCode": "+228",
    "allDialCodes": [
      "+228"
    ],
    "emoji": "ğŸ‡¹ğŸ‡¬",
    "unicode": "U+1F1F9 U+1F1EC",
    "flag": "https://cdn.jsdelivr.net/npm/country-flag-emoji-json@2.0.0/dist/images/TG.svg"
  },
  {
    "id": 227,
    "name": "Tokelau",
    "nativeName": "Tokelau",
    "code": "TK",
    "dialCode": "+690",
    "allDialCodes": [
      "+690"
    ],
    "emoji": "ğŸ‡¹ğŸ‡°",
    "unicode": "U+1F1F9 U+1F1F0",
    "flag": "https://cdn.jsdelivr.net/npm/country-flag-emoji-json@2.0.0/dist/images/TK.svg"
  },
  {
    "id": 228,
    "name": "Tonga",
    "nativeName": "PuleÊ»anga FakatuÊ»i Ê»o Tonga",
    "code": "TO",
    "dialCode": "+676",
    "allDialCodes": [
      "+676"
    ],
    "emoji": "ğŸ‡¹ğŸ‡´",
    "unicode": "U+1F1F9 U+1F1F4",
    "flag": "https://cdn.jsdelivr.net/npm/country-flag-emoji-json@2.0.0/dist/images/TO.svg"
  },
  {
    "id": 229,
    "name": "Trinidad and Tobago",
    "nativeName": "Trinidad and Tobago",
    "code": "TT",
    "dialCode": "+1868",
    "allDialCodes": [
      "+1868"
    ],
    "emoji": "ğŸ‡¹ğŸ‡¹",
    "unicode": "U+1F1F9 U+1F1F9",
    "flag": "https://cdn.jsdelivr.net/npm/country-flag-emoji-json@2.0.0/dist/images/TT.svg"
  },
  {
    "id": 230,
    "name": "Tunisia",
    "nativeName": "ØªÙˆÙ†Ø³",
    "code": "TN",
    "dialCode": "+216",
    "allDialCodes": [
      "+216"
    ],
    "emoji": "ğŸ‡¹ğŸ‡³",
    "unicode": "U+1F1F9 U+1F1F3",
    "flag": "https://cdn.jsdelivr.net/npm/country-flag-emoji-json@2.0.0/dist/images/TN.svg"
  },
  {
    "id": 231,
    "name": "Turkey",
    "nativeName": "TÃ¼rkiye",
    "code": "TR",
    "dialCode": "+90",
    "allDialCodes": [
      "+90"
    ],
    "emoji": "ğŸ‡¹ğŸ‡·",
    "unicode": "U+1F1F9 U+1F1F7",
    "flag": "https://cdn.jsdelivr.net/npm/country-flag-emoji-json@2.0.0/dist/images/TR.svg"
  },
  {
    "id": 232,
    "name": "Turkmenistan",
    "nativeName": "TÃ¼rkmenistan",
    "code": "TM",
    "dialCode": "+993",
    "allDialCodes": [
      "+993"
    ],
    "emoji": "ğŸ‡¹ğŸ‡²",
    "unicode": "U+1F1F9 U+1F1F2",
    "flag": "https://cdn.jsdelivr.net/npm/country-flag-emoji-json@2.0.0/dist/images/TM.svg"
  },
  {
    "id": 233,
    "name": "Turks and Caicos Islands",
    "nativeName": "Turks and Caicos Islands",
    "code": "TC",
    "dialCode": "+1649",
    "allDialCodes": [
      "+1649"
    ],
    "emoji": "ğŸ‡¹ğŸ‡¨",
    "unicode": "U+1F1F9 U+1F1E8",
    "flag": "https://cdn.jsdelivr.net/npm/country-flag-emoji-json@2.0.0/dist/images/TC.svg"
  },
  {
    "id": 234,
    "name": "Tuvalu",
    "nativeName": "Tuuvalu",
    "code": "TV",
    "dialCode": "+688",
    "allDialCodes": [
      "+688"
    ],
    "emoji": "ğŸ‡¹ğŸ‡»",
    "unicode": "U+1F1F9 U+1F1FB",
    "flag": "https://cdn.jsdelivr.net/npm/country-flag-emoji-json@2.0.0/dist/images/TV.svg"
  },
  {
    "id": 235,
    "name": "Uganda",
    "nativeName": "Uganda",
    "code": "UG",
    "dialCode": "+256",
    "allDialCodes": [
      "+256"
    ],
    "emoji": "ğŸ‡ºğŸ‡¬",
    "unicode": "U+1F1FA U+1F1EC",
    "flag": "https://cdn.jsdelivr.net/npm/country-flag-emoji-json@2.0.0/dist/images/UG.svg"
  },
  {
    "id": 236,
    "name": "Ukraine",
    "nativeName": "Ğ£ĞºÑ€Ğ°Ñ—Ğ½Ğ°",
    "code": "UA",
    "dialCode": "+380",
    "allDialCodes": [
      "+380"
    ],
    "emoji": "ğŸ‡ºğŸ‡¦",
    "unicode": "U+1F1FA U+1F1E6",
    "flag": "https://cdn.jsdelivr.net/npm/country-flag-emoji-json@2.0.0/dist/images/UA.svg"
  },
  {
    "id": 237,
    "name": "United Arab Emirates",
    "nativeName": "Ø§Ù„Ø¥Ù…Ø§Ø±Ø§Øª Ø§Ù„Ø¹Ø±Ø¨ÙŠØ© Ø§Ù„Ù…ØªØ­Ø¯Ø©",
    "code": "AE",
    "dialCode": "+971",
    "allDialCodes": [
      "+971"
    ],
    "emoji": "ğŸ‡¦ğŸ‡ª",
    "unicode": "U+1F1E6 U+1F1EA",
    "flag": "https://cdn.jsdelivr.net/npm/country-flag-emoji-json@2.0.0/dist/images/AE.svg"
  },
  {
    "id": 238,
    "name": "United Kingdom (UK)",
    "nativeName": "United Kingdom (UK)",
    "code": "GB",
    "dialCode": "+44",
    "allDialCodes": [
      "+44"
    ],
    "emoji": "ğŸ‡¬ğŸ‡§",
    "unicode": "U+1F1EC U+1F1E7",
    "flag": "https://cdn.jsdelivr.net/npm/country-flag-emoji-json@2.0.0/dist/images/GB.svg"
  },
  {
    "id": 239,
    "name": "United States (USA)",
    "nativeName": "United States (USA)",
    "code": "US",
    "dialCode": "+1",
    "allDialCodes": [
      "+1"
    ],
    "emoji": "ğŸ‡ºğŸ‡¸",
    "unicode": "U+1F1FA U+1F1F8",
    "flag": "https://cdn.jsdelivr.net/npm/country-flag-emoji-json@2.0.0/dist/images/US.svg"
  },
  {
    "id": 240,
    "name": "United States Virgin Islands",
    "nativeName": "United States Virgin Islands",
    "code": "VI",
    "dialCode": "+1340",
    "allDialCodes": [
      "+1340"
    ],
    "emoji": "ğŸ‡»ğŸ‡®",
    "unicode": "U+1F1FB U+1F1EE",
    "flag": "https://cdn.jsdelivr.net/npm/country-flag-emoji-json@2.0.0/dist/images/VI.svg"
  },
  {
    "id": 241,
    "name": "Uruguay",
    "nativeName": "RepÃºblica Oriental del Uruguay",
    "code": "UY",
    "dialCode": "+598",
    "allDialCodes": [
      "+598"
    ],
    "emoji": "ğŸ‡ºğŸ‡¾",
    "unicode": "U+1F1FA U+1F1FE",
    "flag": "https://cdn.jsdelivr.net/npm/country-flag-emoji-json@2.0.0/dist/images/UY.svg"
  },
  {
    "id": 242,
    "name": "Uzbekistan",
    "nativeName": "OÊ»zbekiston",
    "code": "UZ",
    "dialCode": "+998",
    "allDialCodes": [
      "+998"
    ],
    "emoji": "ğŸ‡ºğŸ‡¿",
    "unicode": "U+1F1FA U+1F1FF",
    "flag": "https://cdn.jsdelivr.net/npm/country-flag-emoji-json@2.0.0/dist/images/UZ.svg"
  },
  {
    "id": 243,
    "name": "Vanuatu",
    "nativeName": "Ripablik blong Vanuatu",
    "code": "VU",
    "dialCode": "+678",
    "allDialCodes": [
      "+678"
    ],
    "emoji": "ğŸ‡»ğŸ‡º",
    "unicode": "U+1F1FB U+1F1FA",
    "flag": "https://cdn.jsdelivr.net/npm/country-flag-emoji-json@2.0.0/dist/images/VU.svg"
  },
  {
    "id": 244,
    "name": "Vatican City",
    "nativeName": "CittÃ  del Vaticano",
    "code": "VA",
    "dialCode": "+379",
    "allDialCodes": [
      "+379"
    ],
    "emoji": "ğŸ‡»ğŸ‡¦",
    "unicode": "U+1F1FB U+1F1E6",
    "flag": "https://cdn.jsdelivr.net/npm/country-flag-emoji-json@2.0.0/dist/images/VA.svg"
  },
  {
    "id": 245,
    "name": "Venezuela",
    "nativeName": "RepÃºblica Bolivariana de Venezuela",
    "code": "VE",
    "dialCode": "+58",
    "allDialCodes": [
      "+58"
    ],
    "emoji": "ğŸ‡»ğŸ‡ª",
    "unicode": "U+1F1FB U+1F1EA",
    "flag": "https://cdn.jsdelivr.net/npm/country-flag-emoji-json@2.0.0/dist/images/VE.svg"
  },
  {
    "id": 246,
    "name": "Vietnam",
    "nativeName": "Viá»‡t Nam",
    "code": "VN",
    "dialCode": "+84",
    "allDialCodes": [
      "+84"
    ],
    "emoji": "ğŸ‡»ğŸ‡³",
    "unicode": "U+1F1FB U+1F1F3",
    "flag": "https://cdn.jsdelivr.net/npm/country-flag-emoji-json@2.0.0/dist/images/VN.svg"
  },
  {
    "id": 247,
    "name": "Wallis and Futuna",
    "nativeName": "Wallis-et-Futuna",
    "code": "WF",
    "dialCode": "+681",
    "allDialCodes": [
      "+681"
    ],
    "emoji": "ğŸ‡¼ğŸ‡«",
    "unicode": "U+1F1FC U+1F1EB",
    "flag": "https://cdn.jsdelivr.net/npm/country-flag-emoji-json@2.0.0/dist/images/WF.svg"
  },
  {
    "id": 248,
    "name": "Western Sahara",
    "nativeName": "Ø§Ù„ØµØ­Ø±Ø§Ø¡ Ø§Ù„ØºØ±Ø¨ÙŠØ©",
    "code": "EH",
    "dialCode": "+212",
    "allDialCodes": [
      "+212"
    ],
    "emoji": "ğŸ‡ªğŸ‡­",
    "unicode": "U+1F1EA U+1F1ED",
    "flag": "https://cdn.jsdelivr.net/npm/country-flag-emoji-json@2.0.0/dist/images/EH.svg"
  },
  {
    "id": 249,
    "name": "Yemen",
    "nativeName": "Ø§Ù„ÛŒÙ…Ù†",
    "code": "YE",
    "dialCode": "+967",
    "allDialCodes": [
      "+967"
    ],
    "emoji": "ğŸ‡¾ğŸ‡ª",
    "unicode": "U+1F1FE U+1F1EA",
    "flag": "https://cdn.jsdelivr.net/npm/country-flag-emoji-json@2.0.0/dist/images/YE.svg"
  },
  {
    "id": 250,
    "name": "Zambia",
    "nativeName": "Zambia",
    "code": "ZM",
    "dialCode": "+260",
    "allDialCodes": [
      "+260"
    ],
    "emoji": "ğŸ‡¿ğŸ‡²",
    "unicode": "U+1F1FF U+1F1F2",
    "flag": "https://cdn.jsdelivr.net/npm/country-flag-emoji-json@2.0.0/dist/images/ZM.svg"
  },
  {
    "id": 251,
    "name": "Zimbabwe",
    "nativeName": "Zimbabwe",
    "code": "ZW",
    "dialCode": "+263",
    "allDialCodes": [
      "+263"
    ],
    "emoji": "ğŸ‡¿ğŸ‡²",
    "unicode": "U+1F1FF U+1F1F2",
    "flag": "https://cdn.jsdelivr.net/npm/country-flag-emoji-json@2.0.0/dist/images/ZW.svg"
  }
]